<?xml version="1.0" encoding="UTF-8"?>
<gpx creator="Garmin Connect" version="1.1"
  xsi:schemaLocation="http://www.topografix.com/GPX/1/1 http://www.topografix.com/GPX/11.xsd"
  xmlns:ns3="http://www.garmin.com/xmlschemas/TrackPointExtension/v1"
  xmlns="http://www.topografix.com/GPX/1/1"
  xmlns:xsi="http://www.w3.org/2001/XMLSchema-instance" xmlns:ns2="http://www.garmin.com/xmlschemas/GpxExtensions/v3">
  <metadata>
    <name>2025 北海道マラソン (08/31)</name>
    <link href="connect.garmin.com">
      <text>Garmin Connect</text>
    </link>
    <time>2025-08-30T11:45:44.000Z</time>
  </metadata>
  <wpt lat="43.04357939952877" lon="141.3565443465796">
    <ele>0.0</ele>
    <name>水</name>
    <type>WATER</type>
  </wpt>
  <wpt lat="43.0339626024514" lon="141.3690307507998">
    <ele>0.0</ele>
    <name>水</name>
    <type>WATER</type>
  </wpt>
  <wpt lat="43.04979479757827" lon="141.36903916215317">
    <ele>0.0</ele>
    <name>水</name>
    <type>WATER</type>
  </wpt>
  <wpt lat="43.07873998923598" lon="141.35182999607252">
    <ele>0.0</ele>
    <name>水</name>
    <type>WATER</type>
  </wpt>
  <wpt lat="43.12169097050356" lon="141.28081253650174">
    <ele>0.0</ele>
    <name>水</name>
    <type>WATER</type>
  </wpt>
  <wpt lat="43.1217624614779" lon="141.28070493831945">
    <ele>0.0</ele>
    <name>食事</name>
    <type>FOOD</type>
  </wpt>
  <wpt lat="43.12153614045731" lon="141.28104556496015">
    <ele>0.0</ele>
    <name>水</name>
    <type>WATER</type>
  </wpt>
  <wpt lat="43.13838624628637" lon="141.25752941887328">
    <ele>0.0</ele>
    <name>水</name>
    <type>WATER</type>
  </wpt>
  <wpt lat="43.14554375740286" lon="141.24771134284188">
    <ele>0.0</ele>
    <name>水</name>
    <type>WATER</type>
  </wpt>
  <wpt lat="43.14157001679911" lon="141.2532615144365">
    <ele>0.0</ele>
    <name>食事</name>
    <type>FOOD</type>
  </wpt>
  <wpt lat="43.11424390590259" lon="141.29092192116843">
    <ele>0.0</ele>
    <name>水</name>
    <type>WATER</type>
  </wpt>
  <wpt lat="43.11347193785466" lon="141.29199708527995">
    <ele>0.0</ele>
    <name>水</name>
    <type>WATER</type>
  </wpt>
  <wpt lat="43.10828533954918" lon="141.2991165742278">
    <ele>0.0</ele>
    <name>水</name>
    <type>WATER</type>
  </wpt>
  <wpt lat="43.10987100234765" lon="141.31385237082094">
    <ele>0.0</ele>
    <name>水</name>
    <type>WATER</type>
  </wpt>
  <wpt lat="43.10904206903113" lon="141.3153806514354">
    <ele>0.0</ele>
    <name>水</name>
    <type>WATER</type>
  </wpt>
  <wpt lat="43.09670945676686" lon="141.3237645482245">
    <ele>0.0</ele>
    <name>水</name>
    <type>WATER</type>
  </wpt>
  <wpt lat="43.08450472169687" lon="141.3298501471398">
    <ele>0.0</ele>
    <name>水</name>
    <type>WATER</type>
  </wpt>
  <wpt lat="43.07327637178641" lon="141.34250836664518">
    <ele>0.0</ele>
    <name>水</name>
    <type>WATER</type>
  </wpt>
  <trk>
    <name>2025 北海道マラソン (08/31)</name>
    <trkseg>
      <trkpt lat="43.06006198748946" lon="141.3522407412529">
        <ele>29.14</ele>
      </trkpt>
      <trkpt lat="43.05912036448717" lon="141.3524717465043">
        <ele>36.9</ele>
      </trkpt>
      <trkpt lat="43.04888245649636" lon="141.35508187115192">
        <ele>32.43</ele>
      </trkpt>
      <trkpt lat="43.04909074679017" lon="141.356601677835">
        <ele>35.09</ele>
      </trkpt>
      <trkpt lat="43.048424050211906" lon="141.3567941263318">
        <ele>31.0</ele>
      </trkpt>
      <trkpt lat="43.04682679474354" lon="141.35640654712915">
        <ele>37.73</ele>
      </trkpt>
      <trkpt lat="43.04645195603371" lon="141.35632809251547">
        <ele>37.28</ele>
      </trkpt>
      <trkpt lat="43.04598541930318" lon="141.35647661983967">
        <ele>36.45</ele>
      </trkpt>
      <trkpt lat="43.04551888257265" lon="141.35668080300093">
        <ele>40.45</ele>
      </trkpt>
      <trkpt lat="43.04444516077638" lon="141.3565580919385">
        <ele>34.45</ele>
      </trkpt>
      <trkpt lat="43.04357939399779" lon="141.3565443456173">
        <ele>37.37</ele>
      </trkpt>
      <trkpt lat="43.042966928333044" lon="141.35653462260962">
        <ele>39.8</ele>
      </trkpt>
      <trkpt lat="43.04210828617215" lon="141.35653495788574">
        <ele>42.62</ele>
      </trkpt>
      <trkpt lat="43.04122223518789" lon="141.3563948124647">
        <ele>38.3</ele>
      </trkpt>
      <trkpt lat="43.04020601324737" lon="141.35607428848743">
        <ele>36.21</ele>
      </trkpt>
      <trkpt lat="43.03770334459841" lon="141.36089388281107">
        <ele>42.64</ele>
      </trkpt>
      <trkpt lat="43.03608035668731" lon="141.35939184576273">
        <ele>42.3</ele>
      </trkpt>
      <trkpt lat="43.03553259931505" lon="141.35939184576273">
        <ele>43.33</ele>
      </trkpt>
      <trkpt lat="43.03283932618797" lon="141.3596174865961">
        <ele>44.76</ele>
      </trkpt>
      <trkpt lat="43.03192863240838" lon="141.35968688875437">
        <ele>40.41</ele>
      </trkpt>
      <trkpt lat="43.03104610182345" lon="141.35953098535538">
        <ele>41.98</ele>
      </trkpt>
      <trkpt lat="43.02886236459017" lon="141.3588198646903">
        <ele>47.1</ele>
      </trkpt>
      <trkpt lat="43.027817560359836" lon="141.3585003465414">
        <ele>47.64</ele>
      </trkpt>
      <trkpt lat="43.027657717466354" lon="141.36027328670025">
        <ele>45.79</ele>
      </trkpt>
      <trkpt lat="43.027351358905435" lon="141.36283311992884">
        <ele>58.0</ele>
      </trkpt>
      <trkpt lat="43.026818269863725" lon="141.36791422963142">
        <ele>57.98</ele>
      </trkpt>
      <trkpt lat="43.028994211927056" lon="141.3682458177209">
        <ele>56.93</ele>
      </trkpt>
      <trkpt lat="43.03252978250384" lon="141.36880572885275">
        <ele>49.59</ele>
      </trkpt>
      <trkpt lat="43.033962585031986" lon="141.36903069913387">
        <ele>48.26</ele>
      </trkpt>
      <trkpt lat="43.036683686077595" lon="141.3694580923766">
        <ele>47.01</ele>
      </trkpt>
      <trkpt lat="43.04059837013483" lon="141.37011967599392">
        <ele>39.61</ele>
      </trkpt>
      <trkpt lat="43.04196981713176" lon="141.37031748890877">
        <ele>37.37</ele>
      </trkpt>
      <trkpt lat="43.04562591947615" lon="141.36946454644203">
        <ele>34.79</ele>
      </trkpt>
      <trkpt lat="43.04938570596278" lon="141.36861126869917">
        <ele>29.76</ele>
      </trkpt>
      <trkpt lat="43.04979474283755" lon="141.36903908103704">
        <ele>29.0</ele>
      </trkpt>
      <trkpt lat="43.04983799345791" lon="141.36908434331417">
        <ele>29.0</ele>
      </trkpt>
      <trkpt lat="43.051525354385376" lon="141.36637900024652">
        <ele>26.19</ele>
      </trkpt>
      <trkpt lat="43.052131198346615" lon="141.36362068355083">
        <ele>26.98</ele>
      </trkpt>
      <trkpt lat="43.052724888548255" lon="141.3610528036952">
        <ele>22.14</ele>
      </trkpt>
      <trkpt lat="43.05309997871518" lon="141.35913737118244">
        <ele>34.03</ele>
      </trkpt>
      <trkpt lat="43.05335889570415" lon="141.35887753218412">
        <ele>31.66</ele>
      </trkpt>
      <trkpt lat="43.05558605119586" lon="141.35823983699083">
        <ele>30.19</ele>
      </trkpt>
      <trkpt lat="43.05787640623748" lon="141.35765746235847">
        <ele>26.49</ele>
      </trkpt>
      <trkpt lat="43.05965730920434" lon="141.35716896504164">
        <ele>28.84</ele>
      </trkpt>
      <trkpt lat="43.06285777129233" lon="141.35638274252415">
        <ele>28.79</ele>
      </trkpt>
      <trkpt lat="43.06628655642271" lon="141.35556634515524">
        <ele>28.08</ele>
      </trkpt>
      <trkpt lat="43.06875200942159" lon="141.35491658002138">
        <ele>25.03</ele>
      </trkpt>
      <trkpt lat="43.070875061675906" lon="141.35438080877066">
        <ele>20.42</ele>
      </trkpt>
      <trkpt lat="43.073794981464744" lon="141.35359324514866">
        <ele>22.89</ele>
      </trkpt>
      <trkpt lat="43.075451999902725" lon="141.35318387299776">
        <ele>15.05</ele>
      </trkpt>
      <trkpt lat="43.07709996588528" lon="141.3526088744402">
        <ele>18.53</ele>
      </trkpt>
      <trkpt lat="43.078555315732956" lon="141.35190043598413">
        <ele>16.78</ele>
      </trkpt>
      <trkpt lat="43.078739969059825" lon="141.35182994417846">
        <ele>16.37</ele>
      </trkpt>
      <trkpt lat="43.07992743328214" lon="141.3513770699501">
        <ele>17.84</ele>
      </trkpt>
      <trkpt lat="43.08209323324263" lon="141.35027434676886">
        <ele>17.0</ele>
      </trkpt>
      <trkpt lat="43.08350248262286" lon="141.34949047118425">
        <ele>15.6</ele>
      </trkpt>
      <trkpt lat="43.085636515170336" lon="141.34897883981466">
        <ele>12.29</ele>
      </trkpt>
      <trkpt lat="43.08848929591477" lon="141.34814400225878">
        <ele>11.52</ele>
      </trkpt>
      <trkpt lat="43.09080731123686" lon="141.34758107364178">
        <ele>7.36</ele>
      </trkpt>
      <trkpt lat="43.09036726132035" lon="141.34469468146563">
        <ele>14.48</ele>
      </trkpt>
      <trkpt lat="43.09001077897847" lon="141.34195011109114">
        <ele>19.82</ele>
      </trkpt>
      <trkpt lat="43.08964842930436" lon="141.33923705667257">
        <ele>15.85</ele>
      </trkpt>
      <trkpt lat="43.089257664978504" lon="141.33633490651846">
        <ele>11.03</ele>
      </trkpt>
      <trkpt lat="43.08858476579189" lon="141.3314489275217">
        <ele>16.31</ele>
      </trkpt>
      <trkpt lat="43.088200371712446" lon="141.32812533527613">
        <ele>13.93</ele>
      </trkpt>
      <trkpt lat="43.087952602654696" lon="141.32658138871193">
        <ele>11.9</ele>
      </trkpt>
      <trkpt lat="43.08794992044568" lon="141.32646705955267">
        <ele>11.48</ele>
      </trkpt>
      <trkpt lat="43.08976133354008" lon="141.3240222260356">
        <ele>12.44</ele>
      </trkpt>
      <trkpt lat="43.091209810227156" lon="141.32203470915556">
        <ele>13.0</ele>
      </trkpt>
      <trkpt lat="43.092594081535935" lon="141.32015280425549">
        <ele>13.72</ele>
      </trkpt>
      <trkpt lat="43.10190989635885" lon="141.32827688008547">
        <ele>12.0</ele>
      </trkpt>
      <trkpt lat="43.10287021100521" lon="141.32646840065718">
        <ele>13.0</ele>
      </trkpt>
      <trkpt lat="43.10403152368963" lon="141.32435616105795">
        <ele>11.85</ele>
      </trkpt>
      <trkpt lat="43.107645716518164" lon="141.31785817444324">
        <ele>9.38</ele>
      </trkpt>
      <trkpt lat="43.1144839245826" lon="141.30554851144552">
        <ele>3.94</ele>
      </trkpt>
      <trkpt lat="43.10821484774351" lon="141.29901364445686">
        <ele>6.23</ele>
      </trkpt>
      <trkpt lat="43.10975736938417" lon="141.29726517945528">
        <ele>7.8</ele>
      </trkpt>
      <trkpt lat="43.11188729479909" lon="141.29420410841703">
        <ele>10.52</ele>
      </trkpt>
      <trkpt lat="43.1142851896584" lon="141.29086442291737">
        <ele>10.67</ele>
      </trkpt>
      <trkpt lat="43.117003524675965" lon="141.2873638048768">
        <ele>7.4</ele>
      </trkpt>
      <trkpt lat="43.1187785603106" lon="141.28473792225122">
        <ele>6.71</ele>
      </trkpt>
      <trkpt lat="43.12079709023237" lon="141.28193031996489">
        <ele>8.58</ele>
      </trkpt>
      <trkpt lat="43.121690936386585" lon="141.28081250935793">
        <ele>6.6</ele>
      </trkpt>
      <trkpt lat="43.12176243402064" lon="141.2807048857212">
        <ele>5.58</ele>
      </trkpt>
      <trkpt lat="43.12153612263501" lon="141.2810455262661">
        <ele>7.12</ele>
      </trkpt>
      <trkpt lat="43.12295719049871" lon="141.27890679985285">
        <ele>5.0</ele>
      </trkpt>
      <trkpt lat="43.12497873790562" lon="141.27608209848404">
        <ele>4.7</ele>
      </trkpt>
      <trkpt lat="43.12654414214194" lon="141.27397119998932">
        <ele>7.93</ele>
      </trkpt>
      <trkpt lat="43.13073769211769" lon="141.26815382391214">
        <ele>5.97</ele>
      </trkpt>
      <trkpt lat="43.13263560645282" lon="141.26552794128656">
        <ele>9.13</ele>
      </trkpt>
      <trkpt lat="43.13396539539099" lon="141.26372583210468">
        <ele>9.94</ele>
      </trkpt>
      <trkpt lat="43.13652707263827" lon="141.2601387128234">
        <ele>7.26</ele>
      </trkpt>
      <trkpt lat="43.13784336671233" lon="141.25827725976706">
        <ele>3.08</ele>
      </trkpt>
      <trkpt lat="43.13838617876172" lon="141.25752934254706">
        <ele>5.95</ele>
      </trkpt>
      <trkpt lat="43.13893033191562" lon="141.2567799165845">
        <ele>8.12</ele>
      </trkpt>
      <trkpt lat="43.14201629720628" lon="141.2524800002575">
        <ele>8.0</ele>
      </trkpt>
      <trkpt lat="43.14526277594268" lon="141.24795402400196">
        <ele>7.18</ele>
      </trkpt>
      <trkpt lat="43.14941533841193" lon="141.24232783913612">
        <ele>7.0</ele>
      </trkpt>
      <trkpt lat="43.14942707307637" lon="141.24243646860123">
        <ele>7.0</ele>
      </trkpt>
      <trkpt lat="43.148904629051685" lon="141.24322495423257">
        <ele>8.0</ele>
      </trkpt>
      <trkpt lat="43.147266721352935" lon="141.2454579770565">
        <ele>9.02</ele>
      </trkpt>
      <trkpt lat="43.14554373733699" lon="141.2477112840861">
        <ele>7.62</ele>
      </trkpt>
      <trkpt lat="43.14512279815972" lon="141.24826189130545">
        <ele>7.99</ele>
      </trkpt>
      <trkpt lat="43.14376367256045" lon="141.25022124499083">
        <ele>4.81</ele>
      </trkpt>
      <trkpt lat="43.14188486896455" lon="141.25282164663076">
        <ele>7.59</ele>
      </trkpt>
      <trkpt lat="43.1415699608624" lon="141.25326144509017">
        <ele>6.98</ele>
      </trkpt>
      <trkpt lat="43.139968095347285" lon="141.255499497056">
        <ele>6.71</ele>
      </trkpt>
      <trkpt lat="43.13765368424356" lon="141.25871378928423">
        <ele>8.74</ele>
      </trkpt>
      <trkpt lat="43.13546055927873" lon="141.2618177756667">
        <ele>8.97</ele>
      </trkpt>
      <trkpt lat="43.13379515893757" lon="141.26409497112036">
        <ele>10.97</ele>
      </trkpt>
      <trkpt lat="43.13227132894099" lon="141.2662434205413">
        <ele>8.25</ele>
      </trkpt>
      <trkpt lat="43.12999916262925" lon="141.26934070140123">
        <ele>8.0</ele>
      </trkpt>
      <trkpt lat="43.12871530652046" lon="141.27113476395607">
        <ele>9.17</ele>
      </trkpt>
      <trkpt lat="43.12505777925253" lon="141.2761927396059">
        <ele>4.41</ele>
      </trkpt>
      <trkpt lat="43.12243742868304" lon="141.2798100337386">
        <ele>7.38</ele>
      </trkpt>
      <trkpt lat="43.1199858058244" lon="141.28317084163427">
        <ele>6.97</ele>
      </trkpt>
      <trkpt lat="43.11747634783387" lon="141.28686860203743">
        <ele>8.89</ele>
      </trkpt>
      <trkpt lat="43.11651259660721" lon="141.2881775200367">
        <ele>10.0</ele>
      </trkpt>
      <trkpt lat="43.11525681987405" lon="141.2897114083171">
        <ele>8.96</ele>
      </trkpt>
      <trkpt lat="43.11424386687577" lon="141.2909218389541">
        <ele>10.47</ele>
      </trkpt>
      <trkpt lat="43.11347189359367" lon="141.29199706949294">
        <ele>6.77</ele>
      </trkpt>
      <trkpt lat="43.11297107487917" lon="141.29290726035833">
        <ele>8.67</ele>
      </trkpt>
      <trkpt lat="43.11072740703821" lon="141.2959847599268">
        <ele>12.25</ele>
      </trkpt>
      <trkpt lat="43.10969668440521" lon="141.29742342978716">
        <ele>7.77</ele>
      </trkpt>
      <trkpt lat="43.108285339549184" lon="141.2991165742278">
        <ele>7.23</ele>
      </trkpt>
      <trkpt lat="43.11229188926518" lon="141.30316402763128">
        <ele>6.53</ele>
      </trkpt>
      <trkpt lat="43.11451451852918" lon="141.305478438735">
        <ele>3.72</ele>
      </trkpt>
      <trkpt lat="43.113492177799344" lon="141.30739621818066">
        <ele>8.86</ele>
      </trkpt>
      <trkpt lat="43.11107081361115" lon="141.31168942898512">
        <ele>9.02</ele>
      </trkpt>
      <trkpt lat="43.109870944172144" lon="141.3138522952795">
        <ele>9.94</ele>
      </trkpt>
      <trkpt lat="43.10904205776751" lon="141.31538056768477">
        <ele>9.0</ele>
      </trkpt>
      <trkpt lat="43.109334418550134" lon="141.3148581236601">
        <ele>9.67</ele>
      </trkpt>
      <trkpt lat="43.10763959772885" lon="141.31788734346628">
        <ele>9.47</ele>
      </trkpt>
      <trkpt lat="43.10608576051891" lon="141.32062755525112">
        <ele>10.25</ele>
      </trkpt>
      <trkpt lat="43.10313214547932" lon="141.32603145204484">
        <ele>11.0</ele>
      </trkpt>
      <trkpt lat="43.10191894881427" lon="141.32826816290617">
        <ele>12.0</ele>
      </trkpt>
      <trkpt lat="43.099007243290544" lon="141.32576800882816">
        <ele>12.93</ele>
      </trkpt>
      <trkpt lat="43.0967094283551" lon="141.32376448251307">
        <ele>12.17</ele>
      </trkpt>
      <trkpt lat="43.09580409899354" lon="141.3229751586914">
        <ele>12.58</ele>
      </trkpt>
      <trkpt lat="43.092594584450126" lon="141.320288926363">
        <ele>14.0</ele>
      </trkpt>
      <trkpt lat="43.08736369013786" lon="141.32735017687082">
        <ele>14.28</ele>
      </trkpt>
      <trkpt lat="43.085851930081844" lon="141.32951203733683">
        <ele>15.89</ele>
      </trkpt>
      <trkpt lat="43.085097055882215" lon="141.32986273616552">
        <ele>12.14</ele>
      </trkpt>
      <trkpt lat="43.08450470678508" lon="141.32985007949173">
        <ele>13.63</ele>
      </trkpt>
      <trkpt lat="43.08364572934806" lon="141.32983189076185">
        <ele>15.45</ele>
      </trkpt>
      <trkpt lat="43.08425249531865" lon="141.33480537682772">
        <ele>12.29</ele>
      </trkpt>
      <trkpt lat="43.08193841949105" lon="141.33534383028746">
        <ele>12.0</ele>
      </trkpt>
      <trkpt lat="43.081873543560505" lon="141.3354206085205">
        <ele>12.51</ele>
      </trkpt>
      <trkpt lat="43.08209222741425" lon="141.3378768414259">
        <ele>13.8</ele>
      </trkpt>
      <trkpt lat="43.08230236172676" lon="141.3394546508789">
        <ele>13.0</ele>
      </trkpt>
      <trkpt lat="43.08096972294152" lon="141.3398553058505">
        <ele>14.0</ele>
      </trkpt>
      <trkpt lat="43.08067996054888" lon="141.339920014143">
        <ele>13.25</ele>
      </trkpt>
      <trkpt lat="43.08074810542166" lon="141.34060766547918">
        <ele>14.11</ele>
      </trkpt>
      <trkpt lat="43.0742840655148" lon="141.34224649518728">
        <ele>17.09</ele>
      </trkpt>
      <trkpt lat="43.07327630929649" lon="141.34250834584236">
        <ele>19.4</ele>
      </trkpt>
      <trkpt lat="43.07111285626888" lon="141.3430706039071">
        <ele>17.76</ele>
      </trkpt>
      <trkpt lat="43.071051416918635" lon="141.3434762880206">
        <ele>19.88</ele>
      </trkpt>
      <trkpt lat="43.07126943022013" lon="141.344198808074">
        <ele>18.72</ele>
      </trkpt>
      <trkpt lat="43.0713000241667" lon="141.34485628455877">
        <ele>18.68</ele>
      </trkpt>
      <trkpt lat="43.07085720822215" lon="141.3462272286415">
        <ele>15.54</ele>
      </trkpt>
      <trkpt lat="43.06794843636453" lon="141.34697791188955">
        <ele>34.04</ele>
      </trkpt>
      <trkpt lat="43.06623534299433" lon="141.34738359600306">
        <ele>25.54</ele>
      </trkpt>
      <trkpt lat="43.06506011635065" lon="141.3476772978902">
        <ele>32.07</ele>
      </trkpt>
      <trkpt lat="43.0647502373904" lon="141.34794786572456">
        <ele>26.91</ele>
      </trkpt>
      <trkpt lat="43.06438914500177" lon="141.3483626022935">
        <ele>22.5</ele>
      </trkpt>
      <trkpt lat="43.06410969235003" lon="141.34936977177858">
        <ele>25.76</ele>
      </trkpt>
      <trkpt lat="43.06435167789459" lon="141.35106224566698">
        <ele>39.64</ele>
      </trkpt>
      <trkpt lat="43.060878217220306" lon="141.35190580040216">
        <ele>30.0</ele>
      </trkpt>
    </trkseg>
  </trk>
</gpx>
