<?xml version="1.0" encoding="UTF-8"?>
<gpx creator="Garmin Connect" version="1.1"
  xsi:schemaLocation="http://www.topografix.com/GPX/1/1 http://www.topografix.com/GPX/11.xsd"
  xmlns:ns3="http://www.garmin.com/xmlschemas/TrackPointExtension/v1"
  xmlns="http://www.topografix.com/GPX/1/1"
  xmlns:xsi="http://www.w3.org/2001/XMLSchema-instance" xmlns:ns2="http://www.garmin.com/xmlschemas/GpxExtensions/v3">
  <metadata>
    <name>福井市 ラン 42.74 km - 3月30日</name>
    <link href="connect.garmin.com">
      <text>Garmin Connect</text>
    </link>
    <time>2024-03-30T09:37:46.000Z</time>
  </metadata>
  <trk>
    <name>福井市 ラン 42.74 km - 3月30日</name>
    <trkseg>
      <trkpt lat="36.06264352798462" lon="136.21808943338692">
        <ele>15.1</ele>
      </trkpt>
      <trkpt lat="36.06264361180365" lon="136.21789455413818">
        <ele>15.1</ele>
      </trkpt>
      <trkpt lat="36.06264361180365" lon="136.2177872657776">
        <ele>15.08</ele>
      </trkpt>
      <trkpt lat="36.06274670921266" lon="136.21772708371282">
        <ele>14.96</ele>
      </trkpt>
      <trkpt lat="36.06290110386908" lon="136.21763706207275">
        <ele>16.1</ele>
      </trkpt>
      <trkpt lat="36.063566291704774" lon="136.21765851974487">
        <ele>16.81</ele>
      </trkpt>
      <trkpt lat="36.06365203857422" lon="136.217679977417">
        <ele>17.35</ele>
      </trkpt>
      <trkpt lat="36.06365212239325" lon="136.217679977417">
        <ele>17.76</ele>
      </trkpt>
      <trkpt lat="36.06365212239325" lon="136.21761560440063">
        <ele>18.04</ele>
      </trkpt>
      <trkpt lat="36.06365212239325" lon="136.21748685836792">
        <ele>18.14</ele>
      </trkpt>
      <trkpt lat="36.06365203857422" lon="136.21748685836792">
        <ele>18.38</ele>
      </trkpt>
      <trkpt lat="36.064252937212586" lon="136.21755123138428">
        <ele>19.18</ele>
      </trkpt>
      <trkpt lat="36.064252853393555" lon="136.21755123138428">
        <ele>19.35</ele>
      </trkpt>
      <trkpt lat="36.06517561711371" lon="136.21761560440063">
        <ele>19.93</ele>
      </trkpt>
      <trkpt lat="36.06517553329468" lon="136.21761560440063">
        <ele>19.64</ele>
      </trkpt>
      <trkpt lat="36.065819347277284" lon="136.217679977417">
        <ele>18.0</ele>
      </trkpt>
      <trkpt lat="36.06635578908026" lon="136.21772289276123">
        <ele>17.38</ele>
      </trkpt>
      <trkpt lat="36.06635570526123" lon="136.21772289276123">
        <ele>17.02</ele>
      </trkpt>
      <trkpt lat="36.066763484850526" lon="136.21776580810547">
        <ele>16.96</ele>
      </trkpt>
      <trkpt lat="36.06691368855536" lon="136.21776580810547">
        <ele>16.77</ele>
      </trkpt>
      <trkpt lat="36.06691368855536" lon="136.21785163879395">
        <ele>16.34</ele>
      </trkpt>
      <trkpt lat="36.06691360473633" lon="136.2179160118103">
        <ele>15.98</ele>
      </trkpt>
      <trkpt lat="36.06691368855536" lon="136.2179160118103">
        <ele>15.73</ele>
      </trkpt>
      <trkpt lat="36.06691360473633" lon="136.21798742562532">
        <ele>15.45</ele>
      </trkpt>
      <trkpt lat="36.06691368855536" lon="136.21806621551514">
        <ele>15.52</ele>
      </trkpt>
      <trkpt lat="36.06691368855536" lon="136.2189245223999">
        <ele>15.78</ele>
      </trkpt>
      <trkpt lat="36.06691368855536" lon="136.21901035308838">
        <ele>15.61</ele>
      </trkpt>
      <trkpt lat="36.06691368855536" lon="136.21911764144897">
        <ele>15.28</ele>
      </trkpt>
      <trkpt lat="36.06693506240845" lon="136.22034072875977">
        <ele>14.6</ele>
      </trkpt>
      <trkpt lat="36.06693514622748" lon="136.22034072875977">
        <ele>14.17</ele>
      </trkpt>
      <trkpt lat="36.06693514622748" lon="136.22119903564453">
        <ele>13.48</ele>
      </trkpt>
      <trkpt lat="36.06693514622748" lon="136.22130632400513">
        <ele>13.16</ele>
      </trkpt>
      <trkpt lat="36.06693514622748" lon="136.2213921546936">
        <ele>12.91</ele>
      </trkpt>
      <trkpt lat="36.06693514622748" lon="136.22212171554565">
        <ele>12.95</ele>
      </trkpt>
      <trkpt lat="36.06693514622748" lon="136.22235774993896">
        <ele>12.87</ele>
      </trkpt>
      <trkpt lat="36.06693514622748" lon="136.22242212295532">
        <ele>12.85</ele>
      </trkpt>
      <trkpt lat="36.06693514622748" lon="136.22315168380737">
        <ele>12.93</ele>
      </trkpt>
      <trkpt lat="36.06693514622748" lon="136.2232804298401">
        <ele>13.04</ele>
      </trkpt>
      <trkpt lat="36.06693514622748" lon="136.22336626052856">
        <ele>12.98</ele>
      </trkpt>
      <trkpt lat="36.06693514622748" lon="136.22422456741333">
        <ele>12.68</ele>
      </trkpt>
      <trkpt lat="36.06693514622748" lon="136.2250828742981">
        <ele>12.22</ele>
      </trkpt>
      <trkpt lat="36.066956520080566" lon="136.2256407737732">
        <ele>11.92</ele>
      </trkpt>
      <trkpt lat="36.0669566038996" lon="136.2256407737732">
        <ele>11.75</ele>
      </trkpt>
      <trkpt lat="36.066956520080566" lon="136.22583389282227">
        <ele>11.57</ele>
      </trkpt>
      <trkpt lat="36.0669566038996" lon="136.22583389282227">
        <ele>11.5</ele>
      </trkpt>
      <trkpt lat="36.067793453112245" lon="136.22581243515015">
        <ele>12.04</ele>
      </trkpt>
      <trkpt lat="36.06858738698065" lon="136.22579097747803">
        <ele>11.25</ele>
      </trkpt>
      <trkpt lat="36.06912382878363" lon="136.22579097747803">
        <ele>11.17</ele>
      </trkpt>
      <trkpt lat="36.0694242361933" lon="136.22579097747803">
        <ele>10.92</ele>
      </trkpt>
      <trkpt lat="36.07038983143866" lon="136.2257695198059">
        <ele>10.76</ele>
      </trkpt>
      <trkpt lat="36.07038974761963" lon="136.2257695198059">
        <ele>10.48</ele>
      </trkpt>
      <trkpt lat="36.070933900773525" lon="136.2257494032383">
        <ele>9.75</ele>
      </trkpt>
      <trkpt lat="36.070969104766846" lon="136.2257480621338">
        <ele>9.73</ele>
      </trkpt>
      <trkpt lat="36.07094773091376" lon="136.22757196426392">
        <ele>10.7</ele>
      </trkpt>
      <trkpt lat="36.07096918858588" lon="136.22819423675537">
        <ele>10.53</ele>
      </trkpt>
      <trkpt lat="36.070990646258" lon="136.228666305542">
        <ele>10.22</ele>
      </trkpt>
      <trkpt lat="36.070990646258" lon="136.22915983200073">
        <ele>9.84</ele>
      </trkpt>
      <trkpt lat="36.070990646258" lon="136.229567527771">
        <ele>9.6</ele>
      </trkpt>
      <trkpt lat="36.070990646258" lon="136.22997522354126">
        <ele>9.77</ele>
      </trkpt>
      <trkpt lat="36.070990646258" lon="136.2303614616394">
        <ele>10.05</ele>
      </trkpt>
      <trkpt lat="36.070990646258" lon="136.23083353042603">
        <ele>10.2</ele>
      </trkpt>
      <trkpt lat="36.070990646258" lon="136.23096227645874">
        <ele>10.24</ele>
      </trkpt>
      <trkpt lat="36.071012103930116" lon="136.23154163360596">
        <ele>10.1</ele>
      </trkpt>
      <trkpt lat="36.071012020111084" lon="136.23154163360596">
        <ele>10.1</ele>
      </trkpt>
      <trkpt lat="36.071012103930116" lon="136.23207807540894">
        <ele>10.07</ele>
      </trkpt>
      <trkpt lat="36.071012103930116" lon="136.23276472091675">
        <ele>10.05</ele>
      </trkpt>
      <trkpt lat="36.071012020111084" lon="136.23276472091675">
        <ele>10.04</ele>
      </trkpt>
      <trkpt lat="36.071033561602235" lon="136.23358011245728">
        <ele>10.04</ele>
      </trkpt>
      <trkpt lat="36.0710334777832" lon="136.23358011245728">
        <ele>10.03</ele>
      </trkpt>
      <trkpt lat="36.071033561602235" lon="136.23358011245728">
        <ele>9.69</ele>
      </trkpt>
      <trkpt lat="36.07182741165161" lon="136.23358011245728">
        <ele>9.87</ele>
      </trkpt>
      <trkpt lat="36.07182749547064" lon="136.23358011245728">
        <ele>9.9</ele>
      </trkpt>
      <trkpt lat="36.07238531112671" lon="136.2336230278015">
        <ele>9.45</ele>
      </trkpt>
      <trkpt lat="36.07266426086426" lon="136.2337303161621">
        <ele>9.44</ele>
      </trkpt>
      <trkpt lat="36.07317932881415" lon="136.23403072357178">
        <ele>9.41</ele>
      </trkpt>
      <trkpt lat="36.073265159502625" lon="136.23407363891602">
        <ele>9.56</ele>
      </trkpt>
      <trkpt lat="36.07365139760077" lon="136.23433113098145">
        <ele>10.13</ele>
      </trkpt>
      <trkpt lat="36.073994636535645" lon="136.23452425003052">
        <ele>10.54</ele>
      </trkpt>
      <trkpt lat="36.07455253601074" lon="136.234610080719">
        <ele>10.81</ele>
      </trkpt>
      <trkpt lat="36.074552619829774" lon="136.234610080719">
        <ele>11.07</ele>
      </trkpt>
      <trkpt lat="36.075003230944276" lon="136.2347388267517">
        <ele>11.28</ele>
      </trkpt>
      <trkpt lat="36.07541092671454" lon="136.2351894378662">
        <ele>11.35</ele>
      </trkpt>
      <trkpt lat="36.07564696110785" lon="136.23538255691528">
        <ele>11.46</ele>
      </trkpt>
      <trkpt lat="36.0763765219599" lon="136.2354040145874">
        <ele>12.4</ele>
      </trkpt>
      <trkpt lat="36.07706316746771" lon="136.23542547225952">
        <ele>10.97</ele>
      </trkpt>
      <trkpt lat="36.077256202697754" lon="136.23553276062012">
        <ele>10.52</ele>
      </trkpt>
      <trkpt lat="36.077256286516786" lon="136.23553276062012">
        <ele>10.06</ele>
      </trkpt>
      <trkpt lat="36.07762098312378" lon="136.23581171035767">
        <ele>9.2</ele>
      </trkpt>
      <trkpt lat="36.07777118682861" lon="136.23587608337402">
        <ele>9.08</ele>
      </trkpt>
      <trkpt lat="36.07802465558052" lon="136.23589301481843">
        <ele>9.12</ele>
      </trkpt>
      <trkpt lat="36.07809313572943" lon="136.23589754104614">
        <ele>8.55</ele>
      </trkpt>
      <trkpt lat="36.07807167805731" lon="136.23769998550415">
        <ele>7.87</ele>
      </trkpt>
      <trkpt lat="36.07807159423828" lon="136.23769998550415">
        <ele>7.66</ele>
      </trkpt>
      <trkpt lat="36.07807167805731" lon="136.23769998550415">
        <ele>8.36</ele>
      </trkpt>
      <trkpt lat="36.079766834154725" lon="136.23744249343872">
        <ele>9.35</ele>
      </trkpt>
      <trkpt lat="36.07976675033569" lon="136.23744249343872">
        <ele>9.66</ele>
      </trkpt>
      <trkpt lat="36.0809684637934" lon="136.23724937438965">
        <ele>9.66</ele>
      </trkpt>
      <trkpt lat="36.080968379974365" lon="136.23724937438965">
        <ele>9.67</ele>
      </trkpt>
      <trkpt lat="36.08217009343207" lon="136.23703479766846">
        <ele>9.72</ele>
      </trkpt>
      <trkpt lat="36.08217000961304" lon="136.23703479766846">
        <ele>9.58</ele>
      </trkpt>
      <trkpt lat="36.08362921513617" lon="136.23679876327515">
        <ele>9.12</ele>
      </trkpt>
      <trkpt lat="36.08371504582465" lon="136.23677730560303">
        <ele>9.04</ele>
      </trkpt>
      <trkpt lat="36.084745014086366" lon="136.23660564422607">
        <ele>9.34</ele>
      </trkpt>
      <trkpt lat="36.08475021086633" lon="136.23666591010988">
        <ele>9.36</ele>
      </trkpt>
      <trkpt lat="36.08485230244696" lon="136.23782873153687">
        <ele>9.74</ele>
      </trkpt>
      <trkpt lat="36.08491667546332" lon="136.23872995376587">
        <ele>9.78</ele>
      </trkpt>
      <trkpt lat="36.085045337677" lon="136.24018907546997">
        <ele>9.49</ele>
      </trkpt>
      <trkpt lat="36.08508196659386" lon="136.24019058421254">
        <ele>9.35</ele>
      </trkpt>
      <trkpt lat="36.08556032180786" lon="136.2402105331421">
        <ele>8.74</ele>
      </trkpt>
      <trkpt lat="36.086032474413514" lon="136.2403392791748">
        <ele>9.75</ele>
      </trkpt>
      <trkpt lat="36.08603239059448" lon="136.2403392791748">
        <ele>10.14</ele>
      </trkpt>
      <trkpt lat="36.08693369664252" lon="136.24102592468262">
        <ele>10.09</ele>
      </trkpt>
      <trkpt lat="36.08792074956" lon="136.24173402786255">
        <ele>10.88</ele>
      </trkpt>
      <trkpt lat="36.08884342946112" lon="136.24239921569824">
        <ele>12.81</ele>
      </trkpt>
      <trkpt lat="36.08884334564209" lon="136.24239921569824">
        <ele>13.45</ele>
      </trkpt>
      <trkpt lat="36.09002351760864" lon="136.24310731887817">
        <ele>13.71</ele>
      </trkpt>
      <trkpt lat="36.09071024693549" lon="136.24345064163208">
        <ele>13.69</ele>
      </trkpt>
      <trkpt lat="36.09264143742621" lon="136.2442445755005">
        <ele>14.92</ele>
      </trkpt>
      <trkpt lat="36.09264135360718" lon="136.2442445755005">
        <ele>15.2</ele>
      </trkpt>
      <trkpt lat="36.09264143742621" lon="136.2442445755005">
        <ele>15.36</ele>
      </trkpt>
      <trkpt lat="36.09463700093329" lon="136.24484539031982">
        <ele>10.9</ele>
      </trkpt>
      <trkpt lat="36.09463691711426" lon="136.24484539031982">
        <ele>10.9</ele>
      </trkpt>
      <trkpt lat="36.09654673375189" lon="136.24521017074585">
        <ele>12.97</ele>
      </trkpt>
      <trkpt lat="36.098493011668324" lon="136.24533573165536">
        <ele>13.41</ele>
      </trkpt>
      <trkpt lat="36.09854229725897" lon="136.24533891677856">
        <ele>13.47</ele>
      </trkpt>
      <trkpt lat="36.09937914647162" lon="136.24533891677856">
        <ele>6.47</ele>
      </trkpt>
      <trkpt lat="36.09937906265259" lon="136.24533891677856">
        <ele>6.47</ele>
      </trkpt>
      <trkpt lat="36.10238313674927" lon="136.24512434005737">
        <ele>11.95</ele>
      </trkpt>
      <trkpt lat="36.10433578491211" lon="136.24495267868042">
        <ele>10.83</ele>
      </trkpt>
      <trkpt lat="36.10718973912299" lon="136.24473810195923">
        <ele>9.2</ele>
      </trkpt>
      <trkpt lat="36.107254112139344" lon="136.24473810195923">
        <ele>8.67</ele>
      </trkpt>
      <trkpt lat="36.10969542525709" lon="136.2445416301489">
        <ele>7.37</ele>
      </trkpt>
      <trkpt lat="36.110987747088075" lon="136.24443769454956">
        <ele>12.21</ele>
      </trkpt>
      <trkpt lat="36.11098766326904" lon="136.24443769454956">
        <ele>12.98</ele>
      </trkpt>
      <trkpt lat="36.11255407333374" lon="136.24430894851685">
        <ele>13.18</ele>
      </trkpt>
      <trkpt lat="36.11276873387396" lon="136.24428749084473">
        <ele>12.88</ele>
      </trkpt>
      <trkpt lat="36.113219344988465" lon="136.2442445755005">
        <ele>12.16</ele>
      </trkpt>
      <trkpt lat="36.113219261169434" lon="136.2442445755005">
        <ele>11.84</ele>
      </trkpt>
      <trkpt lat="36.113228062167764" lon="136.24428564682603">
        <ele>11.57</ele>
      </trkpt>
      <trkpt lat="36.11328371800482" lon="136.24454498291016">
        <ele>11.23</ele>
      </trkpt>
      <trkpt lat="36.11384161747992" lon="136.24450206756592">
        <ele>11.14</ele>
      </trkpt>
      <trkpt lat="36.11560114659369" lon="136.24435186386108">
        <ele>11.14</ele>
      </trkpt>
      <trkpt lat="36.11693152226508" lon="136.24433040618896">
        <ele>11.45</ele>
      </trkpt>
      <trkpt lat="36.11748933792114" lon="136.24430894851685">
        <ele>11.75</ele>
      </trkpt>
      <trkpt lat="36.11748933792114" lon="136.24398708343506">
        <ele>11.61</ele>
      </trkpt>
      <trkpt lat="36.1190128326416" lon="136.24398708343506">
        <ele>11.9</ele>
      </trkpt>
      <trkpt lat="36.1190128326416" lon="136.2441087886691">
        <ele>11.85</ele>
      </trkpt>
      <trkpt lat="36.11901291646063" lon="136.24433040618896">
        <ele>11.75</ele>
      </trkpt>
      <trkpt lat="36.1190128326416" lon="136.24433040618896">
        <ele>11.73</ele>
      </trkpt>
      <trkpt lat="36.11912020482123" lon="136.24512434005737">
        <ele>12.04</ele>
      </trkpt>
      <trkpt lat="36.1194206122309" lon="136.24585390090942">
        <ele>11.85</ele>
      </trkpt>
      <trkpt lat="36.11963518895209" lon="136.2462830543518">
        <ele>11.63</ele>
      </trkpt>
      <trkpt lat="36.11974239349365" lon="136.246497631073">
        <ele>11.59</ele>
      </trkpt>
      <trkpt lat="36.12006434239447" lon="136.24688386917114">
        <ele>11.58</ele>
      </trkpt>
      <trkpt lat="36.12025737762451" lon="136.24709844589233">
        <ele>11.59</ele>
      </trkpt>
      <trkpt lat="36.12083681859076" lon="136.2475061416626">
        <ele>11.7</ele>
      </trkpt>
      <trkpt lat="36.121244514361024" lon="136.2477207183838">
        <ele>11.67</ele>
      </trkpt>
      <trkpt lat="36.12128742970526" lon="136.2477421760559">
        <ele>11.73</ele>
      </trkpt>
      <trkpt lat="36.12190970219672" lon="136.2480640411377">
        <ele>11.85</ele>
      </trkpt>
      <trkpt lat="36.121909618377686" lon="136.2480640411377">
        <ele>11.97</ele>
      </trkpt>
      <trkpt lat="36.12381943501532" lon="136.24905109405518">
        <ele>12.45</ele>
      </trkpt>
      <trkpt lat="36.12388380803168" lon="136.2490940093994">
        <ele>12.63</ele>
      </trkpt>
      <trkpt lat="36.12459191121161" lon="136.24943733215332">
        <ele>12.79</ele>
      </trkpt>
      <trkpt lat="36.12532147206366" lon="136.24982357025146">
        <ele>12.73</ele>
      </trkpt>
      <trkpt lat="36.12532138824463" lon="136.24982357025146">
        <ele>12.79</ele>
      </trkpt>
      <trkpt lat="36.1258149985224" lon="136.25005960464478">
        <ele>12.81</ele>
      </trkpt>
      <trkpt lat="36.12628706730902" lon="136.2503170967102">
        <ele>12.81</ele>
      </trkpt>
      <trkpt lat="36.12635144032538" lon="136.25036001205444">
        <ele>12.88</ele>
      </trkpt>
      <trkpt lat="36.12678059376776" lon="136.25061750411987">
        <ele>13.01</ele>
      </trkpt>
      <trkpt lat="36.12710245884955" lon="136.25081062316895">
        <ele>13.16</ele>
      </trkpt>
      <trkpt lat="36.12710237503052" lon="136.25081062316895">
        <ele>13.26</ele>
      </trkpt>
      <trkpt lat="36.12729557789862" lon="136.25093936920166">
        <ele>13.39</ele>
      </trkpt>
      <trkpt lat="36.128475749865174" lon="136.25169038772583">
        <ele>13.71</ele>
      </trkpt>
      <trkpt lat="36.1288405302912" lon="136.25190496444702">
        <ele>13.73</ele>
      </trkpt>
      <trkpt lat="36.12909802235663" lon="136.25205516815186">
        <ele>13.68</ele>
      </trkpt>
      <trkpt lat="36.12931259907782" lon="136.2522053718567">
        <ele>13.59</ele>
      </trkpt>
      <trkpt lat="36.12937697209418" lon="136.25226974487305">
        <ele>13.55</ele>
      </trkpt>
      <trkpt lat="36.12987049855292" lon="136.2526774406433">
        <ele>13.56</ele>
      </trkpt>
      <trkpt lat="36.13008507527411" lon="136.25282764434814">
        <ele>13.53</ele>
      </trkpt>
      <trkpt lat="36.13014944829047" lon="136.2528920173645">
        <ele>13.48</ele>
      </trkpt>
      <trkpt lat="36.130471313372254" lon="136.25317096710205">
        <ele>13.49</ele>
      </trkpt>
      <trkpt lat="36.1307502631098" lon="136.25338554382324">
        <ele>13.37</ele>
      </trkpt>
      <trkpt lat="36.13107212819159" lon="136.2536644935608">
        <ele>13.21</ele>
      </trkpt>
      <trkpt lat="36.13135107792914" lon="136.2539005279541">
        <ele>13.0</ele>
      </trkpt>
      <trkpt lat="36.13199480809271" lon="136.25443696975708">
        <ele>12.7</ele>
      </trkpt>
      <trkpt lat="36.13199472427368" lon="136.25443696975708">
        <ele>12.48</ele>
      </trkpt>
      <trkpt lat="36.13255270756781" lon="136.2549090385437">
        <ele>12.11</ele>
      </trkpt>
      <trkpt lat="36.1328745726496" lon="136.25516653060913">
        <ele>11.91</ele>
      </trkpt>
      <trkpt lat="36.132938945665956" lon="136.2552309036255">
        <ele>11.78</ele>
      </trkpt>
      <trkpt lat="36.132938861846924" lon="136.2552309036255">
        <ele>11.7</ele>
      </trkpt>
      <trkpt lat="36.133947456255555" lon="136.25604629516602">
        <ele>11.83</ele>
      </trkpt>
      <trkpt lat="36.134204948320985" lon="136.25628232955933">
        <ele>11.62</ele>
      </trkpt>
      <trkpt lat="36.13426932133734" lon="136.25632524490356">
        <ele>11.68</ele>
      </trkpt>
      <trkpt lat="36.13426923751831" lon="136.25632524490356">
        <ele>11.82</ele>
      </trkpt>
      <trkpt lat="36.134440982714295" lon="136.25645399093628">
        <ele>12.1</ele>
      </trkpt>
      <trkpt lat="36.134677017107606" lon="136.25664710998535">
        <ele>12.43</ele>
      </trkpt>
      <trkpt lat="36.1348915938288" lon="136.25684022903442">
        <ele>12.61</ele>
      </trkpt>
      <trkpt lat="36.13514908589423" lon="136.25705480575562">
        <ele>12.62</ele>
      </trkpt>
      <trkpt lat="36.13536366261542" lon="136.25722646713257">
        <ele>12.45</ele>
      </trkpt>
      <trkpt lat="36.135685527697206" lon="136.257483959198">
        <ele>12.46</ele>
      </trkpt>
      <trkpt lat="36.13607176579535" lon="136.25780582427979">
        <ele>12.63</ele>
      </trkpt>
      <trkpt lat="36.1368013266474" lon="136.25840663909912">
        <ele>12.59</ele>
      </trkpt>
      <trkpt lat="36.136930072680116" lon="136.25851392745972">
        <ele>12.74</ele>
      </trkpt>
      <trkpt lat="36.137234922498465" lon="136.25876169651747">
        <ele>12.67</ele>
      </trkpt>
      <trkpt lat="36.13727339543402" lon="136.25879287719727">
        <ele>12.31</ele>
      </trkpt>
      <trkpt lat="36.13727331161499" lon="136.25879287719727">
        <ele>12.28</ele>
      </trkpt>
      <trkpt lat="36.138947093859315" lon="136.260187625885">
        <ele>12.04</ele>
      </trkpt>
      <trkpt lat="36.13909721374512" lon="136.26031637191772">
        <ele>12.13</ele>
      </trkpt>
      <trkpt lat="36.13980540074408" lon="136.26089572906494">
        <ele>12.54</ele>
      </trkpt>
      <trkpt lat="36.13980531692505" lon="136.26089572906494">
        <ele>12.68</ele>
      </trkpt>
      <trkpt lat="36.140427673235536" lon="136.26143217086792">
        <ele>12.69</ele>
      </trkpt>
      <trkpt lat="36.140449130907655" lon="136.26145362854004">
        <ele>12.77</ele>
      </trkpt>
      <trkpt lat="36.14081391133368" lon="136.2617540359497">
        <ele>13.07</ele>
      </trkpt>
      <trkpt lat="36.14147909916937" lon="136.26229047775269">
        <ele>12.88</ele>
      </trkpt>
      <trkpt lat="36.14214428700507" lon="136.26289129257202">
        <ele>12.99</ele>
      </trkpt>
      <trkpt lat="36.1424446105957" lon="136.26317024230957">
        <ele>13.27</ele>
      </trkpt>
      <trkpt lat="36.14244243130088" lon="136.26324517652392">
        <ele>13.45</ele>
      </trkpt>
      <trkpt lat="36.142423236742616" lon="136.26389980316162">
        <ele>13.69</ele>
      </trkpt>
      <trkpt lat="36.142423152923584" lon="136.26389980316162">
        <ele>13.62</ele>
      </trkpt>
      <trkpt lat="36.142401695251465" lon="136.26417875289917">
        <ele>13.53</ele>
      </trkpt>
      <trkpt lat="36.14235886372626" lon="136.26490831375122">
        <ele>13.18</ele>
      </trkpt>
      <trkpt lat="36.14233740605414" lon="136.26561641693115">
        <ele>12.74</ele>
      </trkpt>
      <trkpt lat="36.14227303303778" lon="136.26671075820923">
        <ele>13.2</ele>
      </trkpt>
      <trkpt lat="36.142208660021424" lon="136.2680196762085">
        <ele>12.76</ele>
      </trkpt>
      <trkpt lat="36.142208660021424" lon="136.26804113388062">
        <ele>12.79</ele>
      </trkpt>
      <trkpt lat="36.14214428700507" lon="136.26930713653564">
        <ele>13.06</ele>
      </trkpt>
      <trkpt lat="36.14208368584514" lon="136.27063918858767">
        <ele>13.94</ele>
      </trkpt>
      <trkpt lat="36.14207991398871" lon="136.2707233428955">
        <ele>14.75</ele>
      </trkpt>
      <trkpt lat="36.14203699864447" lon="136.27166748046875">
        <ele>14.65</ele>
      </trkpt>
      <trkpt lat="36.14203691482544" lon="136.271710395813">
        <ele>14.68</ele>
      </trkpt>
      <trkpt lat="36.14203699864447" lon="136.271710395813">
        <ele>14.71</ele>
      </trkpt>
      <trkpt lat="36.14203699864447" lon="136.272075176239">
        <ele>14.71</ele>
      </trkpt>
      <trkpt lat="36.14199408330023" lon="136.27299785614014">
        <ele>15.08</ele>
      </trkpt>
      <trkpt lat="36.142106568440795" lon="136.27300229854882">
        <ele>15.04</ele>
      </trkpt>
      <trkpt lat="36.14362486638129" lon="136.2730622291565">
        <ele>14.11</ele>
      </trkpt>
      <trkpt lat="36.14429005421698" lon="136.27297639846802">
        <ele>13.35</ele>
      </trkpt>
      <trkpt lat="36.14469766616821" lon="136.27278327941895">
        <ele>13.08</ele>
      </trkpt>
      <trkpt lat="36.14562042988837" lon="136.27213954925537">
        <ele>12.4</ele>
      </trkpt>
      <trkpt lat="36.145620346069336" lon="136.27213954925537">
        <ele>12.12</ele>
      </trkpt>
      <trkpt lat="36.146221244707704" lon="136.27203226089478">
        <ele>12.21</ele>
      </trkpt>
      <trkpt lat="36.14658602513373" lon="136.27196788787842">
        <ele>12.24</ele>
      </trkpt>
      <trkpt lat="36.14697226323187" lon="136.27188205718994">
        <ele>12.15</ele>
      </trkpt>
      <trkpt lat="36.147165382280946" lon="136.27186059951782">
        <ele>12.05</ele>
      </trkpt>
      <trkpt lat="36.14720821380615" lon="136.2718391418457">
        <ele>12.06</ele>
      </trkpt>
      <trkpt lat="36.14735850133002" lon="136.27181768417358">
        <ele>12.08</ele>
      </trkpt>
      <trkpt lat="36.147680366411805" lon="136.27177476882935">
        <ele>12.38</ele>
      </trkpt>
      <trkpt lat="36.14795923233032" lon="136.271710395813">
        <ele>12.72</ele>
      </trkpt>
      <trkpt lat="36.14847430028021" lon="136.2716245651245">
        <ele>12.84</ele>
      </trkpt>
      <trkpt lat="36.14937552250922" lon="136.27145290374756">
        <ele>13.04</ele>
      </trkpt>
      <trkpt lat="36.149439895525575" lon="136.27145290374756">
        <ele>13.17</ele>
      </trkpt>
      <trkpt lat="36.14943981170654" lon="136.27145290374756">
        <ele>13.29</ele>
      </trkpt>
      <trkpt lat="36.15001925267279" lon="136.27132415771484">
        <ele>13.33</ele>
      </trkpt>
      <trkpt lat="36.15008354187012" lon="136.27130270004272">
        <ele>13.46</ele>
      </trkpt>
      <trkpt lat="36.150169456377625" lon="136.2712812423706">
        <ele>13.57</ele>
      </trkpt>
      <trkpt lat="36.15064152516425" lon="136.27110958099365">
        <ele>13.77</ele>
      </trkpt>
      <trkpt lat="36.15074872970581" lon="136.2710666656494">
        <ele>13.83</ele>
      </trkpt>
      <trkpt lat="36.150856018066406" lon="136.2710666656494">
        <ele>13.87</ele>
      </trkpt>
      <trkpt lat="36.150920391082764" lon="136.2710666656494">
        <ele>13.89</ele>
      </trkpt>
      <trkpt lat="36.15087755955756" lon="136.2711524963379">
        <ele>13.88</ele>
      </trkpt>
      <trkpt lat="36.150920391082764" lon="136.27110958099365">
        <ele>13.95</ele>
      </trkpt>
      <trkpt lat="36.15122088231146" lon="136.27113103866577">
        <ele>14.03</ele>
      </trkpt>
      <trkpt lat="36.15128391422331" lon="136.27114998176694">
        <ele>14.04</ele>
      </trkpt>
      <trkpt lat="36.151435459032655" lon="136.27119541168213">
        <ele>14.05</ele>
      </trkpt>
      <trkpt lat="36.151435459032655" lon="136.27110958099365">
        <ele>14.0</ele>
      </trkpt>
      <trkpt lat="36.1518216971308" lon="136.27108812332153">
        <ele>13.85</ele>
      </trkpt>
      <trkpt lat="36.15182161331177" lon="136.27108812332153">
        <ele>13.73</ele>
      </trkpt>
      <trkpt lat="36.15199335850775" lon="136.2710666656494">
        <ele>13.51</ele>
      </trkpt>
      <trkpt lat="36.1522723082453" lon="136.27102375030518">
        <ele>13.37</ele>
      </trkpt>
      <trkpt lat="36.15257271565497" lon="136.27095937728882">
        <ele>13.48</ele>
      </trkpt>
      <trkpt lat="36.15261563099921" lon="136.2709379196167">
        <ele>13.83</ele>
      </trkpt>
      <trkpt lat="36.15313061513007" lon="136.2708306312561">
        <ele>14.82</ele>
      </trkpt>
      <trkpt lat="36.15313061513007" lon="136.27091646194458">
        <ele>15.23</ele>
      </trkpt>
      <trkpt lat="36.153130531311035" lon="136.27091646194458">
        <ele>15.53</ele>
      </trkpt>
      <trkpt lat="36.15313061513007" lon="136.27091646194458">
        <ele>15.52</ele>
      </trkpt>
      <trkpt lat="36.15313061513007" lon="136.2708306312561">
        <ele>14.96</ele>
      </trkpt>
      <trkpt lat="36.153152072802186" lon="136.27010107040405">
        <ele>13.87</ele>
      </trkpt>
      <trkpt lat="36.153152072802186" lon="136.26977920532227">
        <ele>12.97</ele>
      </trkpt>
      <trkpt lat="36.153152072802186" lon="136.26935005187988">
        <ele>12.3</ele>
      </trkpt>
      <trkpt lat="36.153130531311035" lon="136.26879215240479">
        <ele>11.72</ele>
      </trkpt>
      <trkpt lat="36.15304478444159" lon="136.26844882965088">
        <ele>11.28</ele>
      </trkpt>
      <trkpt lat="36.15302332676947" lon="136.2679123878479">
        <ele>10.71</ele>
      </trkpt>
      <trkpt lat="36.15300186909735" lon="136.26737594604492">
        <ele>10.13</ele>
      </trkpt>
      <trkpt lat="36.15299298427999" lon="136.2671475391835">
        <ele>9.91</ele>
      </trkpt>
      <trkpt lat="36.15298041142523" lon="136.26681804656982">
        <ele>10.42</ele>
      </trkpt>
      <trkpt lat="36.15248688496649" lon="136.26681804656982">
        <ele>10.31</ele>
      </trkpt>
      <trkpt lat="36.152207935228944" lon="136.2667965888977">
        <ele>10.62</ele>
      </trkpt>
      <trkpt lat="36.15180015563965" lon="136.2667965888977">
        <ele>11.17</ele>
      </trkpt>
      <trkpt lat="36.15162857808173" lon="136.2667965888977">
        <ele>11.5</ele>
      </trkpt>
      <trkpt lat="36.15156420506537" lon="136.2667965888977">
        <ele>11.69</ele>
      </trkpt>
      <trkpt lat="36.15107067860663" lon="136.2667751312256">
        <ele>11.63</ele>
      </trkpt>
      <trkpt lat="36.15068435668945" lon="136.2667751312256">
        <ele>11.57</ele>
      </trkpt>
      <trkpt lat="36.15053415298462" lon="136.2667751312256">
        <ele>11.48</ele>
      </trkpt>
      <trkpt lat="36.15023374557495" lon="136.2667751312256">
        <ele>11.25</ele>
      </trkpt>
      <trkpt lat="36.149890422821045" lon="136.26673221588135">
        <ele>10.84</ele>
      </trkpt>
      <trkpt lat="36.1495041847229" lon="136.2666893005371">
        <ele>10.8</ele>
      </trkpt>
      <trkpt lat="36.14950426854193" lon="136.2666893005371">
        <ele>10.79</ele>
      </trkpt>
      <trkpt lat="36.14913948811591" lon="136.26664638519287">
        <ele>11.01</ele>
      </trkpt>
      <trkpt lat="36.14873179234564" lon="136.26660346984863">
        <ele>11.35</ele>
      </trkpt>
      <trkpt lat="36.14830263890326" lon="136.2665605545044">
        <ele>11.22</ele>
      </trkpt>
      <trkpt lat="36.147916400805116" lon="136.26649618148804">
        <ele>11.44</ele>
      </trkpt>
      <trkpt lat="36.14755162037909" lon="136.26647472381592">
        <ele>11.66</ele>
      </trkpt>
      <trkpt lat="36.14703663624823" lon="136.26638889312744">
        <ele>11.74</ele>
      </trkpt>
      <trkpt lat="36.146650398150086" lon="136.26636743545532">
        <ele>11.84</ele>
      </trkpt>
      <trkpt lat="36.146650314331055" lon="136.2663459777832">
        <ele>11.77</ele>
      </trkpt>
      <trkpt lat="36.14583492279053" lon="136.26583099365234">
        <ele>11.46</ele>
      </trkpt>
      <trkpt lat="36.14583500660956" lon="136.26583099365234">
        <ele>11.29</ele>
      </trkpt>
      <trkpt lat="36.14501961506903" lon="136.2653374671936">
        <ele>11.08</ele>
      </trkpt>
      <trkpt lat="36.144654834643006" lon="136.26514434814453">
        <ele>10.73</ele>
      </trkpt>
      <trkpt lat="36.14418268203735" lon="136.26469373703003">
        <ele>10.25</ele>
      </trkpt>
      <trkpt lat="36.1440110206604" lon="136.26441478729248">
        <ele>9.98</ele>
      </trkpt>
      <trkpt lat="36.14401110447943" lon="136.26441478729248">
        <ele>9.8</ele>
      </trkpt>
      <trkpt lat="36.143968189135194" lon="136.26413583755493">
        <ele>9.67</ele>
      </trkpt>
      <trkpt lat="36.143753612414" lon="136.2641143798828">
        <ele>9.67</ele>
      </trkpt>
      <trkpt lat="36.1434531211853" lon="136.26407146453857">
        <ele>9.82</ele>
      </trkpt>
      <trkpt lat="36.143078953027725" lon="136.26372763887048">
        <ele>9.76</ele>
      </trkpt>
      <trkpt lat="36.142659271135926" lon="136.26334190368652">
        <ele>12.04</ele>
      </trkpt>
      <trkpt lat="36.142444694414735" lon="136.26317024230957">
        <ele>12.7</ele>
      </trkpt>
      <trkpt lat="36.14214428700507" lon="136.26289129257202">
        <ele>12.82</ele>
      </trkpt>
      <trkpt lat="36.14147909916937" lon="136.26229047775269">
        <ele>12.89</ele>
      </trkpt>
      <trkpt lat="36.14081391133368" lon="136.2617540359497">
        <ele>13.12</ele>
      </trkpt>
      <trkpt lat="36.140449130907655" lon="136.26145362854004">
        <ele>12.93</ele>
      </trkpt>
      <trkpt lat="36.140427673235536" lon="136.26143217086792">
        <ele>12.86</ele>
      </trkpt>
      <trkpt lat="36.13980531692505" lon="136.26089572906494">
        <ele>12.87</ele>
      </trkpt>
      <trkpt lat="36.13980540074408" lon="136.26089572906494">
        <ele>12.82</ele>
      </trkpt>
      <trkpt lat="36.13909721374512" lon="136.26031637191772">
        <ele>12.55</ele>
      </trkpt>
      <trkpt lat="36.138947093859315" lon="136.260187625885">
        <ele>12.42</ele>
      </trkpt>
      <trkpt lat="36.13727331161499" lon="136.25879287719727">
        <ele>12.5</ele>
      </trkpt>
      <trkpt lat="36.13727339543402" lon="136.25879287719727">
        <ele>12.48</ele>
      </trkpt>
      <trkpt lat="36.136930072680116" lon="136.25851392745972">
        <ele>12.53</ele>
      </trkpt>
      <trkpt lat="36.1368013266474" lon="136.25840663909912">
        <ele>12.46</ele>
      </trkpt>
      <trkpt lat="36.13607176579535" lon="136.25780582427979">
        <ele>12.51</ele>
      </trkpt>
      <trkpt lat="36.135685527697206" lon="136.257483959198">
        <ele>12.41</ele>
      </trkpt>
      <trkpt lat="36.13536366261542" lon="136.25722646713257">
        <ele>12.42</ele>
      </trkpt>
      <trkpt lat="36.13514908589423" lon="136.25705480575562">
        <ele>12.52</ele>
      </trkpt>
      <trkpt lat="36.1348915938288" lon="136.25684022903442">
        <ele>12.47</ele>
      </trkpt>
      <trkpt lat="36.134677017107606" lon="136.25664710998535">
        <ele>12.31</ele>
      </trkpt>
      <trkpt lat="36.134440982714295" lon="136.25645399093628">
        <ele>12.06</ele>
      </trkpt>
      <trkpt lat="36.13426923751831" lon="136.25632524490356">
        <ele>11.87</ele>
      </trkpt>
      <trkpt lat="36.13426932133734" lon="136.25632524490356">
        <ele>11.79</ele>
      </trkpt>
      <trkpt lat="36.134204948320985" lon="136.25628232955933">
        <ele>11.76</ele>
      </trkpt>
      <trkpt lat="36.133947456255555" lon="136.25604629516602">
        <ele>11.94</ele>
      </trkpt>
      <trkpt lat="36.132938861846924" lon="136.2552309036255">
        <ele>11.81</ele>
      </trkpt>
      <trkpt lat="36.132938945665956" lon="136.2552309036255">
        <ele>11.88</ele>
      </trkpt>
      <trkpt lat="36.1328745726496" lon="136.25516653060913">
        <ele>11.99</ele>
      </trkpt>
      <trkpt lat="36.13255270756781" lon="136.2549090385437">
        <ele>12.17</ele>
      </trkpt>
      <trkpt lat="36.13199472427368" lon="136.25443696975708">
        <ele>12.51</ele>
      </trkpt>
      <trkpt lat="36.13199480809271" lon="136.25443696975708">
        <ele>12.69</ele>
      </trkpt>
      <trkpt lat="36.13135107792914" lon="136.2539005279541">
        <ele>12.95</ele>
      </trkpt>
      <trkpt lat="36.13107212819159" lon="136.2536644935608">
        <ele>13.14</ele>
      </trkpt>
      <trkpt lat="36.1307502631098" lon="136.25338554382324">
        <ele>13.29</ele>
      </trkpt>
      <trkpt lat="36.130471313372254" lon="136.25317096710205">
        <ele>13.4</ele>
      </trkpt>
      <trkpt lat="36.13014944829047" lon="136.2528920173645">
        <ele>13.39</ele>
      </trkpt>
      <trkpt lat="36.13008507527411" lon="136.25282764434814">
        <ele>13.46</ele>
      </trkpt>
      <trkpt lat="36.12987049855292" lon="136.2526774406433">
        <ele>13.5</ele>
      </trkpt>
      <trkpt lat="36.12937697209418" lon="136.25226974487305">
        <ele>13.51</ele>
      </trkpt>
      <trkpt lat="36.12931259907782" lon="136.2522053718567">
        <ele>13.56</ele>
      </trkpt>
      <trkpt lat="36.12909802235663" lon="136.25205516815186">
        <ele>13.66</ele>
      </trkpt>
      <trkpt lat="36.1288405302912" lon="136.25190496444702">
        <ele>13.72</ele>
      </trkpt>
      <trkpt lat="36.128475749865174" lon="136.25169038772583">
        <ele>13.7</ele>
      </trkpt>
      <trkpt lat="36.12729557789862" lon="136.25093936920166">
        <ele>13.38</ele>
      </trkpt>
      <trkpt lat="36.12710237503052" lon="136.25081062316895">
        <ele>13.26</ele>
      </trkpt>
      <trkpt lat="36.12710245884955" lon="136.25081062316895">
        <ele>13.16</ele>
      </trkpt>
      <trkpt lat="36.12678059376776" lon="136.25061750411987">
        <ele>13.02</ele>
      </trkpt>
      <trkpt lat="36.12635144032538" lon="136.25036001205444">
        <ele>12.89</ele>
      </trkpt>
      <trkpt lat="36.12628706730902" lon="136.2503170967102">
        <ele>12.81</ele>
      </trkpt>
      <trkpt lat="36.1258149985224" lon="136.25005960464478">
        <ele>12.81</ele>
      </trkpt>
      <trkpt lat="36.12532138824463" lon="136.24982357025146">
        <ele>12.79</ele>
      </trkpt>
      <trkpt lat="36.12532147206366" lon="136.24982357025146">
        <ele>12.72</ele>
      </trkpt>
      <trkpt lat="36.12459191121161" lon="136.24943733215332">
        <ele>12.79</ele>
      </trkpt>
      <trkpt lat="36.12388380803168" lon="136.2490940093994">
        <ele>12.63</ele>
      </trkpt>
      <trkpt lat="36.12381943501532" lon="136.24905109405518">
        <ele>12.46</ele>
      </trkpt>
      <trkpt lat="36.121909618377686" lon="136.2480640411377">
        <ele>11.99</ele>
      </trkpt>
      <trkpt lat="36.12190970219672" lon="136.2480640411377">
        <ele>11.87</ele>
      </trkpt>
      <trkpt lat="36.12128742970526" lon="136.2477421760559">
        <ele>11.74</ele>
      </trkpt>
      <trkpt lat="36.121244514361024" lon="136.2477207183838">
        <ele>11.67</ele>
      </trkpt>
      <trkpt lat="36.12083681859076" lon="136.2475061416626">
        <ele>11.69</ele>
      </trkpt>
      <trkpt lat="36.12025737762451" lon="136.24709844589233">
        <ele>11.57</ele>
      </trkpt>
      <trkpt lat="36.12006434239447" lon="136.24688386917114">
        <ele>11.56</ele>
      </trkpt>
      <trkpt lat="36.11974239349365" lon="136.246497631073">
        <ele>11.55</ele>
      </trkpt>
      <trkpt lat="36.11963518895209" lon="136.2462830543518">
        <ele>11.56</ele>
      </trkpt>
      <trkpt lat="36.1194206122309" lon="136.24585390090942">
        <ele>11.74</ele>
      </trkpt>
      <trkpt lat="36.11912020482123" lon="136.24512434005737">
        <ele>11.91</ele>
      </trkpt>
      <trkpt lat="36.1190128326416" lon="136.24433040618896">
        <ele>11.67</ele>
      </trkpt>
      <trkpt lat="36.11901291646063" lon="136.24433040618896">
        <ele>11.73</ele>
      </trkpt>
      <trkpt lat="36.1190128326416" lon="136.24398708343506">
        <ele>11.88</ele>
      </trkpt>
      <trkpt lat="36.117489421740174" lon="136.24398708343506">
        <ele>12.02</ele>
      </trkpt>
      <trkpt lat="36.11747886054218" lon="136.24332952313125">
        <ele>12.92</ele>
      </trkpt>
      <trkpt lat="36.117467964068055" lon="136.24263525009155">
        <ele>14.33</ele>
      </trkpt>
      <trkpt lat="36.117446506395936" lon="136.242356300354">
        <ele>13.99</ele>
      </trkpt>
      <trkpt lat="36.117231929674745" lon="136.24081134796143">
        <ele>12.83</ele>
      </trkpt>
      <trkpt lat="36.11709195189178" lon="136.24082442373037">
        <ele>12.49</ele>
      </trkpt>
      <trkpt lat="36.117231929674745" lon="136.24081134796143">
        <ele>11.75</ele>
      </trkpt>
      <trkpt lat="36.117103099823" lon="136.24016761779785">
        <ele>11.65</ele>
      </trkpt>
      <trkpt lat="36.11652374267578" lon="136.23823642730713">
        <ele>11.11</ele>
      </trkpt>
      <trkpt lat="36.11652382649481" lon="136.23823642730713">
        <ele>10.98</ele>
      </trkpt>
      <trkpt lat="36.11572980880737" lon="136.23568296432495">
        <ele>11.36</ele>
      </trkpt>
      <trkpt lat="36.115729892626405" lon="136.23568296432495">
        <ele>11.42</ele>
      </trkpt>
      <trkpt lat="36.115407943725586" lon="136.23458862304688">
        <ele>11.19</ele>
      </trkpt>
      <trkpt lat="36.11530065536499" lon="136.23385906219482">
        <ele>11.14</ele>
      </trkpt>
      <trkpt lat="36.11530073918402" lon="136.23385906219482">
        <ele>11.09</ele>
      </trkpt>
      <trkpt lat="36.11527919769287" lon="136.2328290939331">
        <ele>10.98</ele>
      </trkpt>
      <trkpt lat="36.11478575505316" lon="136.23267889022827">
        <ele>11.06</ele>
      </trkpt>
      <trkpt lat="36.11439951695502" lon="136.23145580291748">
        <ele>11.03</ele>
      </trkpt>
      <trkpt lat="36.114163398742676" lon="136.23072624206543">
        <ele>11.04</ele>
      </trkpt>
      <trkpt lat="36.11416348256171" lon="136.23072624206543">
        <ele>11.0</ele>
      </trkpt>
      <trkpt lat="36.11351975239813" lon="136.22858047485352">
        <ele>10.89</ele>
      </trkpt>
      <trkpt lat="36.11332663334906" lon="136.22797966003418">
        <ele>10.77</ele>
      </trkpt>
      <trkpt lat="36.11315497197211" lon="136.2274432182312">
        <ele>10.74</ele>
      </trkpt>
      <trkpt lat="36.11276873387396" lon="136.22671365737915">
        <ele>10.91</ele>
      </trkpt>
      <trkpt lat="36.11257561482489" lon="136.22645616531372">
        <ele>11.16</ele>
      </trkpt>
      <trkpt lat="36.111953258514404" lon="136.22581243515015">
        <ele>11.26</ele>
      </trkpt>
      <trkpt lat="36.111953342333436" lon="136.22581243515015">
        <ele>11.38</ele>
      </trkpt>
      <trkpt lat="36.111459732055664" lon="136.22546911239624">
        <ele>11.62</ele>
      </trkpt>
      <trkpt lat="36.11111640930176" lon="136.2253189086914">
        <ele>11.65</ele>
      </trkpt>
      <trkpt lat="36.11019381321967" lon="136.22503995895386">
        <ele>11.42</ele>
      </trkpt>
      <trkpt lat="36.11017235554755" lon="136.22503995895386">
        <ele>11.53</ele>
      </trkpt>
      <trkpt lat="36.10961445607245" lon="136.22491121292114">
        <ele>11.82</ele>
      </trkpt>
      <trkpt lat="36.10909947194159" lon="136.22478246688843">
        <ele>11.9</ele>
      </trkpt>
      <trkpt lat="36.1089279782027" lon="136.22474952600896">
        <ele>11.95</ele>
      </trkpt>
      <trkpt lat="36.10854157246649" lon="136.22467517852783">
        <ele>11.42</ele>
      </trkpt>
      <trkpt lat="36.107468688860536" lon="136.22443914413452">
        <ele>11.26</ele>
      </trkpt>
      <trkpt lat="36.10663183964789" lon="136.22426748275757">
        <ele>10.61</ele>
      </trkpt>
      <trkpt lat="36.10611685551703" lon="136.2242889404297">
        <ele>10.4</ele>
      </trkpt>
      <trkpt lat="36.105988109484315" lon="136.2243103981018">
        <ele>10.51</ele>
      </trkpt>
      <trkpt lat="36.105709159746766" lon="136.22433185577393">
        <ele>10.83</ele>
      </trkpt>
      <trkpt lat="36.1053014639765" lon="136.22435331344604">
        <ele>11.23</ele>
      </trkpt>
      <trkpt lat="36.10463627614081" lon="136.22439622879028">
        <ele>11.08</ele>
      </trkpt>
      <trkpt lat="36.10405683517456" lon="136.2244176864624">
        <ele>11.14</ele>
      </trkpt>
      <trkpt lat="36.10405691899359" lon="136.2244176864624">
        <ele>11.19</ele>
      </trkpt>
      <trkpt lat="36.103969579562545" lon="136.22442816384137">
        <ele>11.23</ele>
      </trkpt>
      <trkpt lat="36.10405691899359" lon="136.2244176864624">
        <ele>10.63</ele>
      </trkpt>
      <trkpt lat="36.103992545977235" lon="136.22388124465942">
        <ele>10.3</ele>
      </trkpt>
      <trkpt lat="36.10392817296088" lon="136.2234091758728">
        <ele>10.0</ele>
      </trkpt>
      <trkpt lat="36.10388525761664" lon="136.22308731079102">
        <ele>9.95</ele>
      </trkpt>
      <trkpt lat="36.10388517379761" lon="136.22308731079102">
        <ele>9.97</ele>
      </trkpt>
      <trkpt lat="36.10382080078125" lon="136.22257232666016">
        <ele>10.17</ele>
      </trkpt>
      <trkpt lat="36.10379942692816" lon="136.22207880020142">
        <ele>10.2</ele>
      </trkpt>
      <trkpt lat="36.10379942692816" lon="136.22203588485718">
        <ele>10.3</ele>
      </trkpt>
      <trkpt lat="36.10379942692816" lon="136.22124195098877">
        <ele>10.68</ele>
      </trkpt>
      <trkpt lat="36.10379934310913" lon="136.22098445892334">
        <ele>10.96</ele>
      </trkpt>
      <trkpt lat="36.10379942692816" lon="136.22098445892334">
        <ele>11.08</ele>
      </trkpt>
      <trkpt lat="36.10388525761664" lon="136.22023344039917">
        <ele>10.99</ele>
      </trkpt>
      <trkpt lat="36.10412129200995" lon="136.21935367584229">
        <ele>11.1</ele>
      </trkpt>
      <trkpt lat="36.10416420735419" lon="136.21922492980957">
        <ele>11.01</ele>
      </trkpt>
      <trkpt lat="36.104464614763856" lon="136.21793746948242">
        <ele>10.54</ele>
      </trkpt>
      <trkpt lat="36.104486072435975" lon="136.2177872657776">
        <ele>10.52</ele>
      </trkpt>
      <trkpt lat="36.10444315709174" lon="136.21686458587646">
        <ele>11.01</ele>
      </trkpt>
      <trkpt lat="36.10442169941962" lon="136.21660709381104">
        <ele>10.96</ele>
      </trkpt>
      <trkpt lat="36.1044002417475" lon="136.21609210968018">
        <ele>10.76</ele>
      </trkpt>
      <trkpt lat="36.10437878407538" lon="136.21581315994263">
        <ele>10.73</ele>
      </trkpt>
      <trkpt lat="36.10437870025635" lon="136.2151050567627">
        <ele>10.88</ele>
      </trkpt>
      <trkpt lat="36.1045503616333" lon="136.2140965461731">
        <ele>10.62</ele>
      </trkpt>
      <trkpt lat="36.1046576499939" lon="136.2131953239441">
        <ele>10.81</ele>
      </trkpt>
      <trkpt lat="36.10455044545233" lon="136.2124228477478">
        <ele>11.25</ele>
      </trkpt>
      <trkpt lat="36.10448598861694" lon="136.2119722366333">
        <ele>11.41</ele>
      </trkpt>
      <trkpt lat="36.104443073272705" lon="136.21195077896118">
        <ele>11.48</ele>
      </trkpt>
      <trkpt lat="36.10424995422363" lon="136.21137142181396">
        <ele>11.39</ele>
      </trkpt>
      <trkpt lat="36.10407829284668" lon="136.2111783027649">
        <ele>11.47</ele>
      </trkpt>
      <trkpt lat="36.10377788543701" lon="136.21031999588013">
        <ele>11.67</ele>
      </trkpt>
      <trkpt lat="36.10343464650214" lon="136.20956897735596">
        <ele>11.6</ele>
      </trkpt>
      <trkpt lat="36.10341318883002" lon="136.2095046043396">
        <ele>11.52</ele>
      </trkpt>
      <trkpt lat="36.1032844427973" lon="136.2092900276184">
        <ele>11.39</ele>
      </trkpt>
      <trkpt lat="36.10285528935492" lon="136.20862483978271">
        <ele>11.01</ele>
      </trkpt>
      <trkpt lat="36.10186823643744" lon="136.20718717575073">
        <ele>10.58</ele>
      </trkpt>
      <trkpt lat="36.101481998339295" lon="136.20656490325928">
        <ele>10.14</ele>
      </trkpt>
      <trkpt lat="36.10124588012695" lon="136.2061357498169">
        <ele>10.01</ele>
      </trkpt>
      <trkpt lat="36.10105284489691" lon="136.20471954345703">
        <ele>9.56</ele>
      </trkpt>
      <trkpt lat="36.10094555653632" lon="136.2039041519165">
        <ele>8.74</ele>
      </trkpt>
      <trkpt lat="36.10081672668457" lon="136.20248794555664">
        <ele>8.1</ele>
      </trkpt>
      <trkpt lat="36.10083818435669" lon="136.2022304534912">
        <ele>7.82</ele>
      </trkpt>
      <trkpt lat="36.10103130340576" lon="136.20128631591797">
        <ele>7.9</ele>
      </trkpt>
      <trkpt lat="36.101224422454834" lon="136.20072841644287">
        <ele>7.85</ele>
      </trkpt>
      <trkpt lat="36.10156782902777" lon="136.20014905929565">
        <ele>7.59</ele>
      </trkpt>
      <trkpt lat="36.10156774520874" lon="136.20014905929565">
        <ele>7.7</ele>
      </trkpt>
      <trkpt lat="36.10201835632324" lon="136.1996555328369">
        <ele>8.0</ele>
      </trkpt>
      <trkpt lat="36.10229730606079" lon="136.1994194984436">
        <ele>8.24</ele>
      </trkpt>
      <trkpt lat="36.10306978225708" lon="136.19890451431274">
        <ele>8.93</ele>
      </trkpt>
      <trkpt lat="36.10463627614081" lon="136.1981749534607">
        <ele>9.55</ele>
      </trkpt>
      <trkpt lat="36.10463619232178" lon="136.1981749534607">
        <ele>9.89</ele>
      </trkpt>
      <trkpt lat="36.10560187138617" lon="136.1977458000183">
        <ele>10.18</ele>
      </trkpt>
      <trkpt lat="36.10706099309027" lon="136.19710206985474">
        <ele>10.38</ele>
      </trkpt>
      <trkpt lat="36.10781201161444" lon="136.19678020477295">
        <ele>10.68</ele>
      </trkpt>
      <trkpt lat="36.1080265045166" lon="136.19667291641235">
        <ele>10.9</ele>
      </trkpt>
      <trkpt lat="36.108434200286865" lon="136.19643688201904">
        <ele>10.88</ele>
      </trkpt>
      <trkpt lat="36.108949184417725" lon="136.1959433555603">
        <ele>10.53</ele>
      </trkpt>
      <trkpt lat="36.10967882908881" lon="136.19489192962646">
        <ele>10.41</ele>
      </trkpt>
      <trkpt lat="36.109678745269775" lon="136.19489192962646">
        <ele>9.82</ele>
      </trkpt>
      <trkpt lat="36.11048089340329" lon="136.19354194030166">
        <ele>8.07</ele>
      </trkpt>
      <trkpt lat="36.11055850982666" lon="136.19341135025024">
        <ele>6.93</ele>
      </trkpt>
      <trkpt lat="36.110944747924805" lon="136.19251012802124">
        <ele>7.48</ele>
      </trkpt>
      <trkpt lat="36.111202239990234" lon="136.19154453277588">
        <ele>8.09</ele>
      </trkpt>
      <trkpt lat="36.11130961216986" lon="136.19053602218628">
        <ele>7.74</ele>
      </trkpt>
      <trkpt lat="36.11130952835083" lon="136.19053602218628">
        <ele>7.2</ele>
      </trkpt>
      <trkpt lat="36.11130961216986" lon="136.18901252746582">
        <ele>5.38</ele>
      </trkpt>
      <trkpt lat="36.11126669682562" lon="136.18901252746582">
        <ele>4.61</ele>
      </trkpt>
      <trkpt lat="36.109700286760926" lon="136.1887764930725">
        <ele>2.86</ele>
      </trkpt>
      <trkpt lat="36.10879906453192" lon="136.1886477470398">
        <ele>6.01</ele>
      </trkpt>
      <trkpt lat="36.108756149187684" lon="136.1886477470398">
        <ele>6.33</ele>
      </trkpt>
      <trkpt lat="36.1068678740412" lon="136.188325881958">
        <ele>6.12</ele>
      </trkpt>
      <trkpt lat="36.10626697540283" lon="136.18841171264648">
        <ele>6.38</ele>
      </trkpt>
      <trkpt lat="36.10607385635376" lon="136.18847608566284">
        <ele>6.9</ele>
      </trkpt>
      <trkpt lat="36.105666160583496" lon="136.1887550354004">
        <ele>7.07</ele>
      </trkpt>
      <trkpt lat="36.105332393199205" lon="136.18918896652758">
        <ele>7.71</ele>
      </trkpt>
      <trkpt lat="36.10523700714111" lon="136.1893129348755">
        <ele>7.37</ele>
      </trkpt>
      <trkpt lat="36.10506534576416" lon="136.18974208831787">
        <ele>6.24</ele>
      </trkpt>
      <trkpt lat="36.105022514238954" lon="136.1899995803833">
        <ele>5.49</ele>
      </trkpt>
      <trkpt lat="36.10502243041992" lon="136.1899995803833">
        <ele>5.27</ele>
      </trkpt>
      <trkpt lat="36.10480785369873" lon="136.19098663330078">
        <ele>5.25</ele>
      </trkpt>
      <trkpt lat="36.104679107666016" lon="136.19128704071045">
        <ele>5.67</ele>
      </trkpt>
      <trkpt lat="36.10452890396118" lon="136.19158744812012">
        <ele>6.12</ele>
      </trkpt>
      <trkpt lat="36.10416420735419" lon="136.19208097457886">
        <ele>6.57</ele>
      </trkpt>
      <trkpt lat="36.10364922322333" lon="136.19261741638184">
        <ele>6.91</ele>
      </trkpt>
      <trkpt lat="36.10285528935492" lon="136.19351863861084">
        <ele>7.76</ele>
      </trkpt>
      <trkpt lat="36.10068806447089" lon="136.1958146095276">
        <ele>8.02</ele>
      </trkpt>
      <trkpt lat="36.100687980651855" lon="136.1958146095276">
        <ele>8.14</ele>
      </trkpt>
      <trkpt lat="36.10028028488159" lon="136.19624376296997">
        <ele>7.87</ele>
      </trkpt>
      <trkpt lat="36.09985113143921" lon="136.19658708572388">
        <ele>8.0</ele>
      </trkpt>
      <trkpt lat="36.09910011291504" lon="136.1969518661499">
        <ele>7.68</ele>
      </trkpt>
      <trkpt lat="36.09858521260321" lon="136.19710206985474">
        <ele>8.1</ele>
      </trkpt>
      <trkpt lat="36.09792002476752" lon="136.19712352752686">
        <ele>8.37</ele>
      </trkpt>
      <trkpt lat="36.096761310473084" lon="136.19714498519897">
        <ele>9.05</ele>
      </trkpt>
      <trkpt lat="36.09676122665405" lon="136.19714498519897">
        <ele>9.16</ele>
      </trkpt>
      <trkpt lat="36.09493740834296" lon="136.19714498519897">
        <ele>8.81</ele>
      </trkpt>
      <trkpt lat="36.09345682896674" lon="136.1971664428711">
        <ele>8.79</ele>
      </trkpt>
      <trkpt lat="36.093456745147705" lon="136.1971664428711">
        <ele>8.94</ele>
      </trkpt>
      <trkpt lat="36.09137543477118" lon="136.1971664428711">
        <ele>9.22</ele>
      </trkpt>
      <trkpt lat="36.08989485539496" lon="136.1971879005432">
        <ele>9.7</ele>
      </trkpt>
      <trkpt lat="36.08867176808417" lon="136.1971879005432">
        <ele>10.69</ele>
      </trkpt>
      <trkpt lat="36.088543022051454" lon="136.1971879005432">
        <ele>11.3</ele>
      </trkpt>
      <trkpt lat="36.08841427601874" lon="136.19720935821533">
        <ele>11.68</ele>
      </trkpt>
      <trkpt lat="36.08841419219971" lon="136.19720935821533">
        <ele>11.5</ele>
      </trkpt>
      <trkpt lat="36.087534511461854" lon="136.1972737312317">
        <ele>10.54</ele>
      </trkpt>
      <trkpt lat="36.08684778213501" lon="136.19733810424805">
        <ele>8.73</ele>
      </trkpt>
      <trkpt lat="36.08686932362616" lon="136.1974024772644">
        <ele>7.55</ele>
      </trkpt>
      <trkpt lat="36.086278734728694" lon="136.19744706898928">
        <ele>4.66</ele>
      </trkpt>
      <trkpt lat="36.085731983184814" lon="136.19748830795288">
        <ele>6.6</ele>
      </trkpt>
      <trkpt lat="36.085732067003846" lon="136.19742393493652">
        <ele>7.72</ele>
      </trkpt>
      <trkpt lat="36.08566769398749" lon="136.19744539260864">
        <ele>8.73</ele>
      </trkpt>
      <trkpt lat="36.0856032371521" lon="136.19744539260864">
        <ele>9.61</ele>
      </trkpt>
      <trkpt lat="36.08558186329901" lon="136.19735956192017">
        <ele>10.29</ele>
      </trkpt>
      <trkpt lat="36.08558177947998" lon="136.19735956192017">
        <ele>10.85</ele>
      </trkpt>
      <trkpt lat="36.08556032180786" lon="136.19720935821533">
        <ele>11.41</ele>
      </trkpt>
      <trkpt lat="36.08513116836548" lon="136.19652271270752">
        <ele>12.35</ele>
      </trkpt>
      <trkpt lat="36.08431586064398" lon="136.19441986083984">
        <ele>12.53</ele>
      </trkpt>
      <trkpt lat="36.08395108021796" lon="136.19349718093872">
        <ele>10.96</ele>
      </trkpt>
      <trkpt lat="36.083662156015635" lon="136.19307355955243">
        <ele>10.42</ele>
      </trkpt>
      <trkpt lat="36.083662156015635" lon="136.19307364337146">
        <ele>8.96</ele>
      </trkpt>
      <trkpt lat="36.08362921513617" lon="136.1930251121521">
        <ele>8.97</ele>
      </trkpt>
      <trkpt lat="36.08453035354614" lon="136.19197368621826">
        <ele>9.06</ele>
      </trkpt>
      <trkpt lat="36.084530437365174" lon="136.19197368621826">
        <ele>9.07</ele>
      </trkpt>
      <trkpt lat="36.085216999053955" lon="136.19105100631714">
        <ele>9.02</ele>
      </trkpt>
      <trkpt lat="36.08536728657782" lon="136.19075059890747">
        <ele>9.16</ele>
      </trkpt>
      <trkpt lat="36.085496032610536" lon="136.19047164916992">
        <ele>8.89</ele>
      </trkpt>
      <trkpt lat="36.08607538975775" lon="136.1894416809082">
        <ele>8.84</ele>
      </trkpt>
      <trkpt lat="36.08661183156073" lon="136.1885404586792">
        <ele>8.36</ele>
      </trkpt>
      <trkpt lat="36.08669766224921" lon="136.18834733963013">
        <ele>7.92</ele>
      </trkpt>
      <trkpt lat="36.08671911992133" lon="136.1883044242859">
        <ele>7.77</ele>
      </trkpt>
      <trkpt lat="36.0871696472168" lon="136.18716716766357">
        <ele>8.28</ele>
      </trkpt>
      <trkpt lat="36.08716973103583" lon="136.18716716766357">
        <ele>8.15</ele>
      </trkpt>
      <trkpt lat="36.08721264638007" lon="136.18705987930298">
        <ele>7.9</ele>
      </trkpt>
      <trkpt lat="36.088285529986024" lon="136.18448495864868">
        <ele>7.09</ele>
      </trkpt>
      <trkpt lat="36.08830698765814" lon="136.18433475494385">
        <ele>7.26</ele>
      </trkpt>
      <trkpt lat="36.08834990300238" lon="136.18424892425537">
        <ele>7.53</ele>
      </trkpt>
      <trkpt lat="36.08839273452759" lon="136.18407726287842">
        <ele>7.95</ele>
      </trkpt>
      <trkpt lat="36.08839281834662" lon="136.18291854858398">
        <ele>9.06</ele>
      </trkpt>
      <trkpt lat="36.08839281834662" lon="136.18165254592896">
        <ele>9.05</ele>
      </trkpt>
      <trkpt lat="36.08847294934094" lon="136.17994833737612">
        <ele>9.31</ele>
      </trkpt>
      <trkpt lat="36.088478565216064" lon="136.17982864379883">
        <ele>12.43</ele>
      </trkpt>
      <trkpt lat="36.08804949559271" lon="136.1798071861267">
        <ele>13.55</ele>
      </trkpt>
      <trkpt lat="36.087770545855165" lon="136.1798071861267">
        <ele>14.56</ele>
      </trkpt>
      <trkpt lat="36.08689069747925" lon="136.1797857284546">
        <ele>14.34</ele>
      </trkpt>
      <trkpt lat="36.08689078129828" lon="136.1797857284546">
        <ele>13.98</ele>
      </trkpt>
      <trkpt lat="36.08601093292236" lon="136.1800217628479">
        <ele>13.05</ele>
      </trkpt>
      <trkpt lat="36.08558186329901" lon="136.18021488189697">
        <ele>11.94</ele>
      </trkpt>
      <trkpt lat="36.08543165959418" lon="136.1803650856018">
        <ele>10.72</ele>
      </trkpt>
      <trkpt lat="36.08517408370972" lon="136.18045091629028">
        <ele>9.85</ele>
      </trkpt>
      <trkpt lat="36.0845947265625" lon="136.18042945861816">
        <ele>9.96</ele>
      </trkpt>
      <trkpt lat="36.08438014984131" lon="136.18038654327393">
        <ele>10.21</ele>
      </trkpt>
      <trkpt lat="36.083972454071045" lon="136.18017196655273">
        <ele>11.12</ele>
      </trkpt>
      <trkpt lat="36.083714962005615" lon="136.18010759353638">
        <ele>12.05</ele>
      </trkpt>
      <trkpt lat="36.08289957046509" lon="136.18004322052002">
        <ele>13.85</ele>
      </trkpt>
      <trkpt lat="36.082212924957275" lon="136.1798071861267">
        <ele>14.49</ele>
      </trkpt>
      <trkpt lat="36.081976890563965" lon="136.179678440094">
        <ele>14.91</ele>
      </trkpt>
      <trkpt lat="36.08092546463013" lon="136.17886304855347">
        <ele>15.83</ele>
      </trkpt>
      <trkpt lat="36.0805606842041" lon="136.1786699295044">
        <ele>15.64</ele>
      </trkpt>
      <trkpt lat="36.07978820800781" lon="136.17826223373413">
        <ele>14.15</ele>
      </trkpt>
      <trkpt lat="36.07927322387695" lon="136.17806911468506">
        <ele>13.61</ele>
      </trkpt>
      <trkpt lat="36.078758323565125" lon="136.17794036865234">
        <ele>13.18</ele>
      </trkpt>
      <trkpt lat="36.078758239746094" lon="136.17794036865234">
        <ele>12.1</ele>
      </trkpt>
      <trkpt lat="36.07691296376288" lon="136.17746829986572">
        <ele>10.08</ele>
      </trkpt>
      <trkpt lat="36.07644089497626" lon="136.17738246917725">
        <ele>9.16</ele>
      </trkpt>
      <trkpt lat="36.07556113041937" lon="136.17712497711182">
        <ele>7.73</ele>
      </trkpt>
      <trkpt lat="36.07506760396063" lon="136.17701768875122">
        <ele>7.22</ele>
      </trkpt>
      <trkpt lat="36.07448824681342" lon="136.1769962310791">
        <ele>7.42</ele>
      </trkpt>
      <trkpt lat="36.07435556128621" lon="136.17701282724738">
        <ele>7.18</ele>
      </trkpt>
      <trkpt lat="36.073973178863525" lon="136.17706060409546">
        <ele>7.41</ele>
      </trkpt>
      <trkpt lat="36.073200702667236" lon="136.1773180961609">
        <ele>6.95</ele>
      </trkpt>
      <trkpt lat="36.07307204045355" lon="136.17736101150513">
        <ele>7.25</ele>
      </trkpt>
      <trkpt lat="36.071205139160156" lon="136.17804765701294">
        <ele>8.25</ele>
      </trkpt>
      <trkpt lat="36.07120522297919" lon="136.17804765701294">
        <ele>8.69</ele>
      </trkpt>
      <trkpt lat="36.0706901550293" lon="136.17826223373413">
        <ele>8.79</ele>
      </trkpt>
      <trkpt lat="36.07038983143866" lon="136.17847681045532">
        <ele>9.14</ele>
      </trkpt>
      <trkpt lat="36.07017517089844" lon="136.1786913871765">
        <ele>9.35</ele>
      </trkpt>
      <trkpt lat="36.069960594177246" lon="136.1790132522583">
        <ele>9.09</ele>
      </trkpt>
      <trkpt lat="36.06996067799628" lon="136.1790132522583">
        <ele>8.91</ele>
      </trkpt>
      <trkpt lat="36.06970318593085" lon="136.17944240570068">
        <ele>8.54</ele>
      </trkpt>
      <trkpt lat="36.06961727142334" lon="136.17959260940552">
        <ele>8.13</ele>
      </trkpt>
      <trkpt lat="36.06961735524237" lon="136.17959260940552">
        <ele>7.64</ele>
      </trkpt>
      <trkpt lat="36.06807231903076" lon="136.18296146392822">
        <ele>6.68</ele>
      </trkpt>
      <trkpt lat="36.06811531819403" lon="136.18296146392822">
        <ele>5.88</ele>
      </trkpt>
      <trkpt lat="36.068157982081175" lon="136.1829603742808">
        <ele>5.55</ele>
      </trkpt>
      <trkpt lat="36.06811531819403" lon="136.18296146392822">
        <ele>5.89</ele>
      </trkpt>
      <trkpt lat="36.06807231903076" lon="136.18296146392822">
        <ele>6.24</ele>
      </trkpt>
      <trkpt lat="36.067986488342285" lon="136.1827254295349">
        <ele>6.84</ele>
      </trkpt>
      <trkpt lat="36.067793453112245" lon="136.18218898773193">
        <ele>7.65</ele>
      </trkpt>
      <trkpt lat="36.06779336929321" lon="136.18218898773193">
        <ele>7.97</ele>
      </trkpt>
      <trkpt lat="36.06772908009589" lon="136.1820387840271">
        <ele>8.09</ele>
      </trkpt>
      <trkpt lat="36.06753587722778" lon="136.18150234222412">
        <ele>7.94</ele>
      </trkpt>
      <trkpt lat="36.06749304570258" lon="136.18139505386353">
        <ele>8.14</ele>
      </trkpt>
      <trkpt lat="36.06721409596503" lon="136.1807084083557">
        <ele>8.32</ele>
      </trkpt>
      <trkpt lat="36.06672056950629" lon="136.17939949035645">
        <ele>9.32</ele>
      </trkpt>
      <trkpt lat="36.06672056950629" lon="136.1793351173401">
        <ele>9.63</ele>
      </trkpt>
      <trkpt lat="36.06648453511298" lon="136.17875576019287">
        <ele>9.78</ele>
      </trkpt>
      <trkpt lat="36.06614565476775" lon="136.1778464075178">
        <ele>9.57</ele>
      </trkpt>
      <trkpt lat="36.06607683934271" lon="136.1776614189148">
        <ele>9.55</ele>
      </trkpt>
      <trkpt lat="36.066012382507324" lon="136.17748975753784">
        <ele>9.52</ele>
      </trkpt>
      <trkpt lat="36.06513270176947" lon="136.17819786071777">
        <ele>9.15</ele>
      </trkpt>
      <trkpt lat="36.06508978642523" lon="136.178240776062">
        <ele>8.91</ele>
      </trkpt>
      <trkpt lat="36.06504678726196" lon="136.17828369140625">
        <ele>8.71</ele>
      </trkpt>
      <trkpt lat="36.064991382882" lon="136.17832870222628">
        <ele>8.52</ele>
      </trkpt>
      <trkpt lat="36.06504678726196" lon="136.17828369140625">
        <ele>8.91</ele>
      </trkpt>
      <trkpt lat="36.06508978642523" lon="136.178240776062">
        <ele>9.62</ele>
      </trkpt>
      <trkpt lat="36.064960956573486" lon="136.177875995636">
        <ele>10.7</ele>
      </trkpt>
      <trkpt lat="36.064724922180176" lon="136.17738246917725">
        <ele>12.18</ele>
      </trkpt>
      <trkpt lat="36.06461771763861" lon="136.17691040039062">
        <ele>13.8</ele>
      </trkpt>
      <trkpt lat="36.064531886950135" lon="136.17618083953857">
        <ele>15.73</ele>
      </trkpt>
      <trkpt lat="36.06449710205197" lon="136.17586844600737">
        <ele>15.94</ele>
      </trkpt>
      <trkpt lat="36.06449710205197" lon="136.1758685298264">
        <ele>15.01</ele>
      </trkpt>
      <trkpt lat="36.06446751393378" lon="136.17560148239136">
        <ele>12.67</ele>
      </trkpt>
      <trkpt lat="36.064467430114746" lon="136.17549419403076">
        <ele>11.2</ele>
      </trkpt>
      <trkpt lat="36.06436022557318" lon="136.17558002471924">
        <ele>10.52</ele>
      </trkpt>
      <trkpt lat="36.06311559677124" lon="136.17660999298096">
        <ele>9.28</ele>
      </trkpt>
      <trkpt lat="36.061270320788026" lon="136.1786913871765">
        <ele>7.79</ele>
      </trkpt>
      <trkpt lat="36.061270236968994" lon="136.1786913871765">
        <ele>7.22</ele>
      </trkpt>
      <trkpt lat="36.06039047241211" lon="136.179678440094">
        <ele>6.92</ele>
      </trkpt>
      <trkpt lat="36.06009014882147" lon="136.18017196655273">
        <ele>6.84</ele>
      </trkpt>
      <trkpt lat="36.05985403060913" lon="136.1808156967163">
        <ele>6.95</ele>
      </trkpt>
      <trkpt lat="36.05974615551531" lon="136.18143235333264">
        <ele>6.43</ele>
      </trkpt>
      <trkpt lat="36.05974615551531" lon="136.1814322695136">
        <ele>7.22</ele>
      </trkpt>
      <trkpt lat="36.05970391072333" lon="136.18167400360107">
        <ele>7.74</ele>
      </trkpt>
      <trkpt lat="36.05968245305121" lon="136.18184566497803">
        <ele>8.52</ele>
      </trkpt>
      <trkpt lat="36.05968245305121" lon="136.18212461471558">
        <ele>9.81</ele>
      </trkpt>
      <trkpt lat="36.05968236923218" lon="136.18212461471558">
        <ele>10.73</ele>
      </trkpt>
      <trkpt lat="36.05963953770697" lon="136.1823606491089">
        <ele>11.9</ele>
      </trkpt>
      <trkpt lat="36.05961808003485" lon="136.18244647979736">
        <ele>12.77</ele>
      </trkpt>
      <trkpt lat="36.059575164690614" lon="136.18324041366577">
        <ele>13.76</ele>
      </trkpt>
      <trkpt lat="36.05957508087158" lon="136.18324041366577">
        <ele>14.34</ele>
      </trkpt>
      <trkpt lat="36.05961808003485" lon="136.18354082107544">
        <ele>15.07</ele>
      </trkpt>
      <trkpt lat="36.05961799621582" lon="136.18354082107544">
        <ele>15.28</ele>
      </trkpt>
      <trkpt lat="36.05968245305121" lon="136.1837339401245">
        <ele>15.2</ele>
      </trkpt>
      <trkpt lat="36.05972536839545" lon="136.18388414382935">
        <ele>14.91</ele>
      </trkpt>
      <trkpt lat="36.05987557210028" lon="136.18433475494385">
        <ele>14.34</ele>
      </trkpt>
      <trkpt lat="36.05987548828125" lon="136.18433475494385">
        <ele>13.95</ele>
      </trkpt>
      <trkpt lat="36.0598970297724" lon="136.18499994277954">
        <ele>13.44</ele>
      </trkpt>
      <trkpt lat="36.05989694595337" lon="136.18499994277954">
        <ele>12.97</ele>
      </trkpt>
      <trkpt lat="36.05991848744452" lon="136.185622215271">
        <ele>12.27</ele>
      </trkpt>
      <trkpt lat="36.05991840362549" lon="136.185622215271">
        <ele>11.93</ele>
      </trkpt>
      <trkpt lat="36.059274757280946" lon="136.18626594543457">
        <ele>11.67</ele>
      </trkpt>
      <trkpt lat="36.059274673461914" lon="136.18626594543457">
        <ele>11.42</ele>
      </trkpt>
      <trkpt lat="36.059274757280946" lon="136.18626594543457">
        <ele>11.2</ele>
      </trkpt>
      <trkpt lat="36.059274673461914" lon="136.18626594543457">
        <ele>11.19</ele>
      </trkpt>
      <trkpt lat="36.059038722887635" lon="136.1865234375">
        <ele>11.17</ele>
      </trkpt>
      <trkpt lat="36.058523654937744" lon="136.1870813369751">
        <ele>11.26</ele>
      </trkpt>
      <trkpt lat="36.05815895833075" lon="136.1873173713684">
        <ele>10.95</ele>
      </trkpt>
      <trkpt lat="36.05815887451172" lon="136.1873173713684">
        <ele>10.85</ele>
      </trkpt>
      <trkpt lat="36.057772636413574" lon="136.18746757507324">
        <ele>10.63</ele>
      </trkpt>
      <trkpt lat="36.056785667315125" lon="136.18770360946655">
        <ele>11.01</ele>
      </trkpt>
      <trkpt lat="36.05680117383599" lon="136.18778692558408">
        <ele>11.15</ele>
      </trkpt>
      <trkpt lat="36.056785667315125" lon="136.18770360946655">
        <ele>11.4</ele>
      </trkpt>
      <trkpt lat="36.05665692128241" lon="136.18705987930298">
        <ele>11.92</ele>
      </trkpt>
      <trkpt lat="36.0564208868891" lon="136.18547201156616">
        <ele>7.79</ele>
      </trkpt>
      <trkpt lat="36.056544687598944" lon="136.18307755328715">
        <ele>8.46</ele>
      </trkpt>
      <trkpt lat="36.056544687598944" lon="136.18307746946812">
        <ele>8.66</ele>
      </trkpt>
      <trkpt lat="36.056549632921815" lon="136.18298292160034">
        <ele>8.65</ele>
      </trkpt>
      <trkpt lat="36.05654954910278" lon="136.18298292160034">
        <ele>8.42</ele>
      </trkpt>
      <trkpt lat="36.05511196888983" lon="136.1828327178955">
        <ele>7.64</ele>
      </trkpt>
      <trkpt lat="36.0551118850708" lon="136.1828327178955">
        <ele>7.38</ele>
      </trkpt>
      <trkpt lat="36.05511196888983" lon="136.1828327178955">
        <ele>4.35</ele>
      </trkpt>
      <trkpt lat="36.0554123762995" lon="136.18165254592896">
        <ele>2.4</ele>
      </trkpt>
      <trkpt lat="36.055326545611024" lon="136.18156671524048">
        <ele>1.92</ele>
      </trkpt>
      <trkpt lat="36.05534791946411" lon="136.18143796920776">
        <ele>1.74</ele>
      </trkpt>
      <trkpt lat="36.05530500411987" lon="136.1813735961914">
        <ele>2.03</ele>
      </trkpt>
      <trkpt lat="36.05532646179199" lon="136.1810302734375">
        <ele>2.64</ele>
      </trkpt>
      <trkpt lat="36.0551118850708" lon="136.1806869506836">
        <ele>3.54</ele>
      </trkpt>
      <trkpt lat="36.055026054382324" lon="136.18062257766724">
        <ele>4.33</ele>
      </trkpt>
      <trkpt lat="36.05484743602574" lon="136.1805661674589">
        <ele>5.17</ele>
      </trkpt>
      <trkpt lat="36.05461835861206" lon="136.18049383163452">
        <ele>8.4</ele>
      </trkpt>
      <trkpt lat="36.05440378189087" lon="136.18055820465088">
        <ele>9.53</ele>
      </trkpt>
      <trkpt lat="36.05397471226752" lon="136.18083715438843">
        <ele>10.2</ele>
      </trkpt>
      <trkpt lat="36.05356693267822" lon="136.18109464645386">
        <ele>10.61</ele>
      </trkpt>
      <trkpt lat="36.0524941328913" lon="136.181480884552">
        <ele>12.44</ele>
      </trkpt>
      <trkpt lat="36.05195760726929" lon="136.18150234222412">
        <ele>13.47</ele>
      </trkpt>
      <trkpt lat="36.05062731541693" lon="136.1813521385193">
        <ele>11.94</ele>
      </trkpt>
      <trkpt lat="36.049790382385254" lon="136.18122339248657">
        <ele>11.99</ele>
      </trkpt>
      <trkpt lat="36.04970413260162" lon="136.18125214241445">
        <ele>11.65</ele>
      </trkpt>
      <trkpt lat="36.049790382385254" lon="136.18122339248657">
        <ele>11.59</ele>
      </trkpt>
      <trkpt lat="36.05062731541693" lon="136.1813521385193">
        <ele>11.5</ele>
      </trkpt>
      <trkpt lat="36.05195760726929" lon="136.18150234222412">
        <ele>13.04</ele>
      </trkpt>
      <trkpt lat="36.0524941328913" lon="136.181480884552">
        <ele>12.62</ele>
      </trkpt>
      <trkpt lat="36.05356693267822" lon="136.18109464645386">
        <ele>11.4</ele>
      </trkpt>
      <trkpt lat="36.05397471226752" lon="136.18083715438843">
        <ele>11.24</ele>
      </trkpt>
      <trkpt lat="36.05393179692328" lon="136.18072986602783">
        <ele>11.08</ele>
      </trkpt>
      <trkpt lat="36.05343827046454" lon="136.18100881576538">
        <ele>10.82</ele>
      </trkpt>
      <trkpt lat="36.05247267521918" lon="136.1813521385193">
        <ele>11.62</ele>
      </trkpt>
      <trkpt lat="36.0519362334162" lon="136.18139505386353">
        <ele>12.02</ele>
      </trkpt>
      <trkpt lat="36.05062731541693" lon="136.1812448501587">
        <ele>10.9</ele>
      </trkpt>
      <trkpt lat="36.049768924713135" lon="136.1811375617981">
        <ele>10.92</ele>
      </trkpt>
      <trkpt lat="36.049532890319824" lon="136.18128776550293">
        <ele>9.98</ele>
      </trkpt>
      <trkpt lat="36.04942568577826" lon="136.18152379989624">
        <ele>9.47</ele>
      </trkpt>
      <trkpt lat="36.049318397417665" lon="136.18268251419067">
        <ele>9.32</ele>
      </trkpt>
      <trkpt lat="36.04925402440131" lon="136.18332624435425">
        <ele>9.89</ele>
      </trkpt>
      <trkpt lat="36.04916819371283" lon="136.18424892425537">
        <ele>9.67</ele>
      </trkpt>
      <trkpt lat="36.049017990008" lon="136.1853003501892">
        <ele>9.92</ele>
      </trkpt>
      <trkpt lat="36.049017906188965" lon="136.1853003501892">
        <ele>10.03</ele>
      </trkpt>
      <trkpt lat="36.04899653233588" lon="136.1854076385498">
        <ele>10.24</ele>
      </trkpt>
      <trkpt lat="36.048996448516846" lon="136.18547201156616">
        <ele>10.38</ele>
      </trkpt>
      <trkpt lat="36.04907331056893" lon="136.1854782141745">
        <ele>10.55</ele>
      </trkpt>
      <trkpt lat="36.049790466204286" lon="136.18553638458252">
        <ele>13.02</ele>
      </trkpt>
      <trkpt lat="36.049790382385254" lon="136.18553638458252">
        <ele>13.04</ele>
      </trkpt>
      <trkpt lat="36.05024107731879" lon="136.18557929992676">
        <ele>12.6</ele>
      </trkpt>
      <trkpt lat="36.050240993499756" lon="136.18557929992676">
        <ele>12.02</ele>
      </trkpt>
      <trkpt lat="36.051335418596864" lon="136.18566513061523">
        <ele>10.7</ele>
      </trkpt>
      <trkpt lat="36.05144270695746" lon="136.18568658828735">
        <ele>9.69</ele>
      </trkpt>
      <trkpt lat="36.05322369374335" lon="136.1858367919922">
        <ele>8.39</ele>
      </trkpt>
      <trkpt lat="36.05386742390692" lon="136.18590116500854">
        <ele>7.95</ele>
      </trkpt>
      <trkpt lat="36.0545111540705" lon="136.18594408035278">
        <ele>6.73</ele>
      </trkpt>
      <trkpt lat="36.054520793259144" lon="136.1860411427915">
        <ele>6.29</ele>
      </trkpt>
      <trkpt lat="36.054554069414735" lon="136.18637323379517">
        <ele>6.9</ele>
      </trkpt>
      <trkpt lat="36.05459698475897" lon="136.18701696395874">
        <ele>7.03</ele>
      </trkpt>
      <trkpt lat="36.05466135777533" lon="136.1876392364502">
        <ele>7.97</ele>
      </trkpt>
      <trkpt lat="36.0546612739563" lon="136.1876392364502">
        <ele>8.31</ele>
      </trkpt>
      <trkpt lat="36.054725646972656" lon="136.18817567825317">
        <ele>8.57</ele>
      </trkpt>
      <trkpt lat="36.05473017320037" lon="136.1882312502712">
        <ele>8.65</ele>
      </trkpt>
      <trkpt lat="36.05472573079169" lon="136.18817567825317">
        <ele>9.51</ele>
      </trkpt>
      <trkpt lat="36.056785583496094" lon="136.18770360946655">
        <ele>10.61</ele>
      </trkpt>
      <trkpt lat="36.056785667315125" lon="136.18770360946655">
        <ele>10.88</ele>
      </trkpt>
      <trkpt lat="36.05691441334784" lon="136.18839025497437">
        <ele>10.87</ele>
      </trkpt>
      <trkpt lat="36.05706637725234" lon="136.18926306255162">
        <ele>10.21</ele>
      </trkpt>
      <trkpt lat="36.05706646107137" lon="136.18926314637065">
        <ele>9.21</ele>
      </trkpt>
      <trkpt lat="36.05740793980658" lon="136.1912226676941">
        <ele>9.48</ele>
      </trkpt>
      <trkpt lat="36.057536685839295" lon="136.19186639785767">
        <ele>9.46</ele>
      </trkpt>
      <trkpt lat="36.05760105885565" lon="136.1922311782837">
        <ele>9.89</ele>
      </trkpt>
      <trkpt lat="36.05766543187201" lon="136.1926817893982">
        <ele>10.82</ele>
      </trkpt>
      <trkpt lat="36.057751178741455" lon="136.19311094284058">
        <ele>11.99</ele>
      </trkpt>
      <trkpt lat="36.05775126256049" lon="136.19311094284058">
        <ele>12.91</ele>
      </trkpt>
      <trkpt lat="36.057815635576844" lon="136.19349718093872">
        <ele>14.17</ele>
      </trkpt>
      <trkpt lat="36.05783709324896" lon="136.19351863861084">
        <ele>15.01</ele>
      </trkpt>
      <trkpt lat="36.05792284011841" lon="136.19388341903687">
        <ele>15.78</ele>
      </trkpt>
      <trkpt lat="36.05818041600287" lon="136.19439840316772">
        <ele>16.63</ele>
      </trkpt>
      <trkpt lat="36.05858811177313" lon="136.1952567100525">
        <ele>16.34</ele>
      </trkpt>
      <trkpt lat="36.059274757280946" lon="136.19665145874023">
        <ele>14.19</ele>
      </trkpt>
      <trkpt lat="36.05961808003485" lon="136.1972951889038">
        <ele>12.84</ele>
      </trkpt>
      <trkpt lat="36.059652948752046" lon="136.19729795493186">
        <ele>12.19</ele>
      </trkpt>
      <trkpt lat="36.06015452183783" lon="136.19733810424805">
        <ele>9.34</ele>
      </trkpt>
      <trkpt lat="36.06086262501776" lon="136.19738101959229">
        <ele>9.62</ele>
      </trkpt>
      <trkpt lat="36.06169939041138" lon="136.19742393493652">
        <ele>10.27</ele>
      </trkpt>
      <trkpt lat="36.06187105178833" lon="136.197509765625">
        <ele>10.17</ele>
      </trkpt>
      <trkpt lat="36.06245049275458" lon="136.19757413864136">
        <ele>10.13</ele>
      </trkpt>
      <trkpt lat="36.06382369995117" lon="136.1977458000183">
        <ele>10.04</ele>
      </trkpt>
      <trkpt lat="36.063823783770204" lon="136.1977458000183">
        <ele>9.98</ele>
      </trkpt>
      <trkpt lat="36.06386669911444" lon="136.1977458000183">
        <ele>9.92</ele>
      </trkpt>
      <trkpt lat="36.06384716928005" lon="136.1978462152183">
        <ele>9.68</ele>
      </trkpt>
      <trkpt lat="36.063737869262695" lon="136.198410987854">
        <ele>9.74</ele>
      </trkpt>
      <trkpt lat="36.06365203857422" lon="136.1995267868042">
        <ele>10.29</ele>
      </trkpt>
      <trkpt lat="36.06365212239325" lon="136.1995267868042">
        <ele>10.57</ele>
      </trkpt>
      <trkpt lat="36.06365212239325" lon="136.19991302490234">
        <ele>10.83</ele>
      </trkpt>
      <trkpt lat="36.06363066472113" lon="136.2004280090332">
        <ele>10.97</ele>
      </trkpt>
      <trkpt lat="36.06365203857422" lon="136.20180130004883">
        <ele>10.96</ele>
      </trkpt>
      <trkpt lat="36.06371649540961" lon="136.20240211486816">
        <ele>11.19</ele>
      </trkpt>
      <trkpt lat="36.06384515762329" lon="136.20302438735962">
        <ele>11.35</ele>
      </trkpt>
      <trkpt lat="36.064059818163514" lon="136.20362520217896">
        <ele>11.45</ele>
      </trkpt>
      <trkpt lat="36.06438159942627" lon="136.20426893234253">
        <ele>11.5</ele>
      </trkpt>
      <trkpt lat="36.0643816832453" lon="136.20426893234253">
        <ele>11.58</ele>
      </trkpt>
      <trkpt lat="36.0645318031311" lon="136.2045693397522">
        <ele>11.67</ele>
      </trkpt>
      <trkpt lat="36.06478929519653" lon="136.20532035827637">
        <ele>11.95</ele>
      </trkpt>
      <trkpt lat="36.06489666737616" lon="136.20589971542358">
        <ele>11.98</ele>
      </trkpt>
      <trkpt lat="36.064982414245605" lon="136.2068223953247">
        <ele>11.87</ele>
      </trkpt>
      <trkpt lat="36.065003955736756" lon="136.20695114135742">
        <ele>12.13</ele>
      </trkpt>
      <trkpt lat="36.065025413408875" lon="136.20744466781616">
        <ele>12.59</ele>
      </trkpt>
      <trkpt lat="36.065003955736756" lon="136.2082600593567">
        <ele>12.8</ele>
      </trkpt>
      <trkpt lat="36.064960956573486" lon="136.20892524719238">
        <ele>13.71</ele>
      </trkpt>
      <trkpt lat="36.06496104039252" lon="136.20892524719238">
        <ele>14.1</ele>
      </trkpt>
      <trkpt lat="36.06491812504828" lon="136.20976209640503">
        <ele>14.62</ele>
      </trkpt>
      <trkpt lat="36.064789379015565" lon="136.21057748794556">
        <ele>14.49</ele>
      </trkpt>
      <trkpt lat="36.06463917531073" lon="136.21100664138794">
        <ele>14.96</ele>
      </trkpt>
      <trkpt lat="36.064510429278016" lon="136.21139287948608">
        <ele>15.29</ele>
      </trkpt>
      <trkpt lat="36.064295852556825" lon="136.21190786361694">
        <ele>15.49</ele>
      </trkpt>
      <trkpt lat="36.064231395721436" lon="136.2120795249939">
        <ele>15.55</ele>
      </trkpt>
      <trkpt lat="36.06416710652411" lon="136.21233701705933">
        <ele>15.52</ele>
      </trkpt>
      <trkpt lat="36.06390961445868" lon="136.21300220489502">
        <ele>15.6</ele>
      </trkpt>
      <trkpt lat="36.06360920704901" lon="136.21373176574707">
        <ele>15.92</ele>
      </trkpt>
      <trkpt lat="36.06360912322998" lon="136.21373176574707">
        <ele>15.76</ele>
      </trkpt>
      <trkpt lat="36.06335171498358" lon="136.21435403823853">
        <ele>15.27</ele>
      </trkpt>
      <trkpt lat="36.063308799639344" lon="136.21448278427124">
        <ele>15.04</ele>
      </trkpt>
      <trkpt lat="36.063265884295106" lon="136.21461153030396">
        <ele>14.79</ele>
      </trkpt>
      <trkpt lat="36.063308799639344" lon="136.21463298797607">
        <ele>14.53</ele>
      </trkpt>
      <trkpt lat="36.06320151127875" lon="136.21493339538574">
        <ele>14.18</ele>
      </trkpt>
      <trkpt lat="36.06296547688544" lon="136.21557712554932">
        <ele>13.85</ele>
      </trkpt>
      <trkpt lat="36.06285818852484" lon="136.2162208557129">
        <ele>13.27</ele>
      </trkpt>
      <trkpt lat="36.06285810470581" lon="136.2162208557129">
        <ele>13.19</ele>
      </trkpt>
      <trkpt lat="36.062793815508485" lon="136.21660709381104">
        <ele>13.27</ele>
      </trkpt>
      <trkpt lat="36.062729358673096" lon="136.21716499328613">
        <ele>13.72</ele>
      </trkpt>
      <trkpt lat="36.062655011191964" lon="136.21715015731752">
        <ele>13.64</ele>
      </trkpt>
    </trkseg>
  </trk>
</gpx>
