<?xml version="1.0" encoding="UTF-8"?>
<gpx creator="Garmin Connect" version="1.1"
  xsi:schemaLocation="http://www.topografix.com/GPX/1/1 http://www.topografix.com/GPX/11.xsd"
  xmlns:ns3="http://www.garmin.com/xmlschemas/TrackPointExtension/v1"
  xmlns="http://www.topografix.com/GPX/1/1"
  xmlns:xsi="http://www.w3.org/2001/XMLSchema-instance" xmlns:ns2="http://www.garmin.com/xmlschemas/GpxExtensions/v3">
  <metadata>
    <name>鳥取マラソン</name>
    <link href="connect.garmin.com">
      <text>Garmin Connect</text>
    </link>
    <time>2024-11-21T08:58:03.000Z</time>
  </metadata>
  <trk>
    <name>鳥取マラソン</name>
    <trkseg>
      <trkpt lat="35.5496649350971" lon="134.2421106621623">
        <ele>9.75</ele>
      </trkpt>
      <trkpt lat="35.549174174666405" lon="134.24097876995802">
        <ele>9.86</ele>
      </trkpt>
      <trkpt lat="35.548083605244756" lon="134.2401060461998">
        <ele>17.43</ele>
      </trkpt>
      <trkpt lat="35.54727382957935" lon="134.23895093612373">
        <ele>24.49</ele>
      </trkpt>
      <trkpt lat="35.54619616828859" lon="134.238047786057">
        <ele>32.74</ele>
      </trkpt>
      <trkpt lat="35.543298460543156" lon="134.23716592602432">
        <ele>49.17</ele>
      </trkpt>
      <trkpt lat="35.542522044852376" lon="134.23677968792617">
        <ele>52.92</ele>
      </trkpt>
      <trkpt lat="35.54131773300469" lon="134.23659428022802">
        <ele>56.97</ele>
      </trkpt>
      <trkpt lat="35.54028147831559" lon="134.2369684483856">
        <ele>53.63</ele>
      </trkpt>
      <trkpt lat="35.5389357637614" lon="134.23790839500725">
        <ele>47.53</ele>
      </trkpt>
      <trkpt lat="35.53869151510298" lon="134.23791627399623">
        <ele>45.0</ele>
      </trkpt>
      <trkpt lat="35.538239646703005" lon="134.23622128553689">
        <ele>36.24</ele>
      </trkpt>
      <trkpt lat="35.53634785115719" lon="134.2341781128198">
        <ele>37.32</ele>
      </trkpt>
      <trkpt lat="35.53367276675999" lon="134.23064874485135">
        <ele>45.52</ele>
      </trkpt>
      <trkpt lat="35.532672638073564" lon="134.2300333455205">
        <ele>63.91</ele>
      </trkpt>
      <trkpt lat="35.53013266995549" lon="134.22904000617564">
        <ele>56.62</ele>
      </trkpt>
      <trkpt lat="35.529776606708765" lon="134.22909339889884">
        <ele>50.37</ele>
      </trkpt>
      <trkpt lat="35.527796130627394" lon="134.23016846179962">
        <ele>48.27</ele>
      </trkpt>
      <trkpt lat="35.52631454542279" lon="134.23040038906038">
        <ele>33.04</ele>
      </trkpt>
      <trkpt lat="35.524589801207185" lon="134.23039686866105">
        <ele>11.17</ele>
      </trkpt>
      <trkpt lat="35.523528484627604" lon="134.22982128337026">
        <ele>6.33</ele>
      </trkpt>
      <trkpt lat="35.5234042648226" lon="134.2303132172674">
        <ele>4.82</ele>
      </trkpt>
      <trkpt lat="35.52356938831508" lon="134.23115677200258">
        <ele>4.0</ele>
      </trkpt>
      <trkpt lat="35.52466440014541" lon="134.23289199359715">
        <ele>9.65</ele>
      </trkpt>
      <trkpt lat="35.52461704239249" lon="134.23320489004254">
        <ele>7.38</ele>
      </trkpt>
      <trkpt lat="35.523144425824285" lon="134.23513574525714">
        <ele>7.0</ele>
      </trkpt>
      <trkpt lat="35.521433763206005" lon="134.23670475371182">
        <ele>7.28</ele>
      </trkpt>
      <trkpt lat="35.5198279581964" lon="134.23908823169768">
        <ele>13.71</ele>
      </trkpt>
      <trkpt lat="35.519236950203776" lon="134.2393393535167">
        <ele>18.37</ele>
      </trkpt>
      <trkpt lat="35.51876521669328" lon="134.23912754282355">
        <ele>18.84</ele>
      </trkpt>
      <trkpt lat="35.518188793212175" lon="134.23875513486564">
        <ele>16.77</ele>
      </trkpt>
      <trkpt lat="35.517726531252265" lon="134.23814887180924">
        <ele>12.76</ele>
      </trkpt>
      <trkpt lat="35.517642041668296" lon="134.2371199093759">
        <ele>11.3</ele>
      </trkpt>
      <trkpt lat="35.51846179179847" lon="134.23538954928517">
        <ele>17.19</ele>
      </trkpt>
      <trkpt lat="35.51886169239879" lon="134.2348970286548">
        <ele>20.43</ele>
      </trkpt>
      <trkpt lat="35.51953408867121" lon="134.234580360353">
        <ele>15.05</ele>
      </trkpt>
      <trkpt lat="35.51975998096168" lon="134.23428456299007">
        <ele>14.81</ele>
      </trkpt>
      <trkpt lat="35.52011730149388" lon="134.232315486297">
        <ele>17.5</ele>
      </trkpt>
      <trkpt lat="35.5200126953423" lon="134.23097865656018">
        <ele>16.02</ele>
      </trkpt>
      <trkpt lat="35.520144291222095" lon="134.2304842080921">
        <ele>14.94</ele>
      </trkpt>
      <trkpt lat="35.52082356065512" lon="134.229077976197">
        <ele>6.05</ele>
      </trkpt>
      <trkpt lat="35.52183114923537" lon="134.22766730189323">
        <ele>6.0</ele>
      </trkpt>
      <trkpt lat="35.5176539439708" lon="134.22281744889915">
        <ele>3.44</ele>
      </trkpt>
      <trkpt lat="35.51708699204028" lon="134.22222862020135">
        <ele>4.5</ele>
      </trkpt>
      <trkpt lat="35.51676722243428" lon="134.2221954278648">
        <ele>6.7</ele>
      </trkpt>
      <trkpt lat="35.510738119482994" lon="134.229632942006">
        <ele>4.0</ele>
      </trkpt>
      <trkpt lat="35.50767260603607" lon="134.2329494934529">
        <ele>6.09</ele>
      </trkpt>
      <trkpt lat="35.50821281969547" lon="134.23474657349288">
        <ele>7.44</ele>
      </trkpt>
      <trkpt lat="35.5081145837903" lon="134.23501420766115">
        <ele>8.0</ele>
      </trkpt>
      <trkpt lat="35.507268849760294" lon="134.23598206602037">
        <ele>5.78</ele>
      </trkpt>
      <trkpt lat="35.504554035142064" lon="134.23798785544932">
        <ele>6.17</ele>
      </trkpt>
      <trkpt lat="35.5042827129364" lon="134.23793119378388">
        <ele>5.0</ele>
      </trkpt>
      <trkpt lat="35.5036455206573" lon="134.2370516806841">
        <ele>6.62</ele>
      </trkpt>
      <trkpt lat="35.50283884629607" lon="134.23779054544866">
        <ele>6.62</ele>
      </trkpt>
      <trkpt lat="35.5009429436177" lon="134.23889444209635">
        <ele>8.6</ele>
      </trkpt>
      <trkpt lat="35.49580969847739" lon="134.23881540074944">
        <ele>8.99</ele>
      </trkpt>
      <trkpt lat="35.4945863597095" lon="134.2390267085284">
        <ele>9.01</ele>
      </trkpt>
      <trkpt lat="35.49226088449359" lon="134.23876728862524">
        <ele>9.14</ele>
      </trkpt>
      <trkpt lat="35.492286533117294" lon="134.2404736764729">
        <ele>10.76</ele>
      </trkpt>
      <trkpt lat="35.4920323099941" lon="134.2436429578811">
        <ele>10.68</ele>
      </trkpt>
      <trkpt lat="35.49184036441147" lon="134.2451422289014">
        <ele>10.0</ele>
      </trkpt>
      <trkpt lat="35.49153383821249" lon="134.24618259072304">
        <ele>11.07</ele>
      </trkpt>
      <trkpt lat="35.490739066153765" lon="134.24690712243319">
        <ele>8.0</ele>
      </trkpt>
      <trkpt lat="35.490033980458975" lon="134.24865391105413">
        <ele>9.41</ele>
      </trkpt>
      <trkpt lat="35.48438139259815" lon="134.25861186347902">
        <ele>12.0</ele>
      </trkpt>
      <trkpt lat="35.48410998657346" lon="134.25929666496813">
        <ele>12.87</ele>
      </trkpt>
      <trkpt lat="35.48415256664157" lon="134.26066325046122">
        <ele>13.03</ele>
      </trkpt>
      <trkpt lat="35.4840094037354" lon="134.26123145967722">
        <ele>11.88</ele>
      </trkpt>
      <trkpt lat="35.48021583817899" lon="134.2679743655026">
        <ele>22.28</ele>
      </trkpt>
      <trkpt lat="35.47951804473996" lon="134.27034007385373">
        <ele>19.9</ele>
      </trkpt>
      <trkpt lat="35.47817576676607" lon="134.27131597884">
        <ele>20.45</ele>
      </trkpt>
      <trkpt lat="35.477517284452915" lon="134.27303711883724">
        <ele>26.83</ele>
      </trkpt>
      <trkpt lat="35.477123502641916" lon="134.2746451869607">
        <ele>34.51</ele>
      </trkpt>
      <trkpt lat="35.4765734821558" lon="134.2758096009493">
        <ele>24.75</ele>
      </trkpt>
      <trkpt lat="35.4755493812263" lon="134.27688298746943">
        <ele>26.02</ele>
      </trkpt>
      <trkpt lat="35.474081793799996" lon="134.27779661491513">
        <ele>43.04</ele>
      </trkpt>
      <trkpt lat="35.47334963455796" lon="134.27802954800427">
        <ele>43.71</ele>
      </trkpt>
      <trkpt lat="35.471766628324986" lon="134.2793362867087">
        <ele>28.21</ele>
      </trkpt>
      <trkpt lat="35.469735357910395" lon="134.2834130767733">
        <ele>34.07</ele>
      </trkpt>
      <trkpt lat="35.46904896385968" lon="134.2843344155699">
        <ele>36.0</ele>
      </trkpt>
      <trkpt lat="35.4680201690644" lon="134.28525064140558">
        <ele>35.41</ele>
      </trkpt>
      <trkpt lat="35.46778304502368" lon="134.28529682569206">
        <ele>36.32</ele>
      </trkpt>
      <trkpt lat="35.46762144193053" lon="134.28511703386903">
        <ele>35.9</ele>
      </trkpt>
      <trkpt lat="35.46762127429247" lon="134.28511686623096">
        <ele>35.9</ele>
      </trkpt>
      <trkpt lat="35.46705490909517" lon="134.28448705002666">
        <ele>35.92</ele>
      </trkpt>
      <trkpt lat="35.46309596858919" lon="134.2840648535639">
        <ele>38.82</ele>
      </trkpt>
      <trkpt lat="35.46301399357617" lon="134.2835331056267">
        <ele>36.91</ele>
      </trkpt>
      <trkpt lat="35.46364037320018" lon="134.2723173648119">
        <ele>23.44</ele>
      </trkpt>
      <trkpt lat="35.463904989883304" lon="134.27142821252346">
        <ele>24.0</ele>
      </trkpt>
      <trkpt lat="35.46548690646887" lon="134.26946584135294">
        <ele>25.11</ele>
      </trkpt>
      <trkpt lat="35.46562830917537" lon="134.2689709737897">
        <ele>20.81</ele>
      </trkpt>
      <trkpt lat="35.465700225904584" lon="134.26641675643623">
        <ele>17.87</ele>
      </trkpt>
      <trkpt lat="35.46549780294299" lon="134.2657329607755">
        <ele>17.22</ele>
      </trkpt>
      <trkpt lat="35.46506303362548" lon="134.26522585563362">
        <ele>18.54</ele>
      </trkpt>
      <trkpt lat="35.462974179536104" lon="134.2641208693385">
        <ele>35.5</ele>
      </trkpt>
      <trkpt lat="35.46193574555218" lon="134.26337915472686">
        <ele>43.04</ele>
      </trkpt>
      <trkpt lat="35.46040244400501" lon="134.2611801624298">
        <ele>26.49</ele>
      </trkpt>
      <trkpt lat="35.460159201174974" lon="134.26047180779278">
        <ele>22.38</ele>
      </trkpt>
      <trkpt lat="35.46036807820201" lon="134.25882208161056">
        <ele>16.37</ele>
      </trkpt>
      <trkpt lat="35.459842616692185" lon="134.25794298760593">
        <ele>16.94</ele>
      </trkpt>
      <trkpt lat="35.45962644740939" lon="134.25719490274787">
        <ele>15.69</ele>
      </trkpt>
      <trkpt lat="35.458329264074564" lon="134.25732356496155">
        <ele>12.0</ele>
      </trkpt>
      <trkpt lat="35.45789608731866" lon="134.256893992424">
        <ele>11.0</ele>
      </trkpt>
      <trkpt lat="35.457780081778765" lon="134.25525818020105">
        <ele>11.14</ele>
      </trkpt>
      <trkpt lat="35.457819225266576" lon="134.24900544807315">
        <ele>11.31</ele>
      </trkpt>
      <trkpt lat="35.45665883459151" lon="134.24901726655662">
        <ele>17.46</ele>
      </trkpt>
      <trkpt lat="35.4550326615572" lon="134.248605966568">
        <ele>17.5</ele>
      </trkpt>
      <trkpt lat="35.45315486378968" lon="134.2490512970835">
        <ele>26.29</ele>
      </trkpt>
      <trkpt lat="35.4522072058171" lon="134.24979678355157">
        <ele>23.57</ele>
      </trkpt>
      <trkpt lat="35.45042563229799" lon="134.2523385118693">
        <ele>27.1</ele>
      </trkpt>
      <trkpt lat="35.448770709335804" lon="134.25397030077875">
        <ele>31.84</ele>
      </trkpt>
      <trkpt lat="35.44586059637368" lon="134.25545800477266">
        <ele>30.73</ele>
      </trkpt>
      <trkpt lat="35.4427077434957" lon="134.25580065697432">
        <ele>43.15</ele>
      </trkpt>
      <trkpt lat="35.44583955779672" lon="134.25586293451488">
        <ele>34.67</ele>
      </trkpt>
      <trkpt lat="35.44651974923909" lon="134.2556066159159">
        <ele>34.36</ele>
      </trkpt>
      <trkpt lat="35.44765926897526" lon="134.2548100836575">
        <ele>34.58</ele>
      </trkpt>
      <trkpt lat="35.448891995474696" lon="134.25330662168562">
        <ele>26.39</ele>
      </trkpt>
      <trkpt lat="35.451018484309316" lon="134.24784497357905">
        <ele>19.26</ele>
      </trkpt>
      <trkpt lat="35.451897997409105" lon="134.24618577584624">
        <ele>17.85</ele>
      </trkpt>
      <trkpt lat="35.453026704490185" lon="134.24473486840725">
        <ele>17.12</ele>
      </trkpt>
      <trkpt lat="35.45420645736158" lon="134.24369174055755">
        <ele>15.0</ele>
      </trkpt>
      <trkpt lat="35.455067278817296" lon="134.2432275507599">
        <ele>14.13</ele>
      </trkpt>
      <trkpt lat="35.456442246213555" lon="134.24294114112854">
        <ele>13.0</ele>
      </trkpt>
      <trkpt lat="35.457778070122004" lon="134.24295228905976">
        <ele>13.92</ele>
      </trkpt>
      <trkpt lat="35.457970183342695" lon="134.24280988052487">
        <ele>14.11</ele>
      </trkpt>
      <trkpt lat="35.45809356495738" lon="134.23922577872872">
        <ele>13.0</ele>
      </trkpt>
      <trkpt lat="35.45829766429961" lon="134.23820444382727">
        <ele>12.08</ele>
      </trkpt>
      <trkpt lat="35.456741228699684" lon="134.2362900171429">
        <ele>14.68</ele>
      </trkpt>
      <trkpt lat="35.45592533424497" lon="134.23347587697208">
        <ele>11.4</ele>
      </trkpt>
      <trkpt lat="35.456419782713056" lon="134.22586200758815">
        <ele>14.57</ele>
      </trkpt>
      <trkpt lat="35.45712939463556" lon="134.22247538343072">
        <ele>11.18</ele>
      </trkpt>
      <trkpt lat="35.45491925440729" lon="134.22092204913497">
        <ele>9.25</ele>
      </trkpt>
      <trkpt lat="35.451794397085905" lon="134.21759359538555">
        <ele>13.69</ele>
      </trkpt>
      <trkpt lat="35.45119601301849" lon="134.2166875116527">
        <ele>14.28</ele>
      </trkpt>
      <trkpt lat="35.45123909600079" lon="134.21502554789186">
        <ele>11.1</ele>
      </trkpt>
      <trkpt lat="35.45000293292105" lon="134.2149772681296">
        <ele>14.0</ele>
      </trkpt>
      <trkpt lat="35.44836385175586" lon="134.2152870632708">
        <ele>17.88</ele>
      </trkpt>
      <trkpt lat="35.4475034493953" lon="134.2151195090264">
        <ele>14.55</ele>
      </trkpt>
      <trkpt lat="35.440127458423376" lon="134.20975509099662">
        <ele>17.47</ele>
      </trkpt>
      <trkpt lat="35.43949211016297" lon="134.20956599526107">
        <ele>18.55</ele>
      </trkpt>
      <trkpt lat="35.43884938582778" lon="134.20958493836224">
        <ele>17.69</ele>
      </trkpt>
      <trkpt lat="35.43725498020649" lon="134.21020754612982">
        <ele>15.81</ele>
      </trkpt>
      <trkpt lat="35.432583997026086" lon="134.21309041790664">
        <ele>16.36</ele>
      </trkpt>
      <trkpt lat="35.432307813316584" lon="134.21275514177978">
        <ele>15.37</ele>
      </trkpt>
      <trkpt lat="35.43153215199709" lon="134.21060090884566">
        <ele>18.0</ele>
      </trkpt>
      <trkpt lat="35.43186943978071" lon="134.21032950282097">
        <ele>17.06</ele>
      </trkpt>
      <trkpt lat="35.43186985887587" lon="134.2103290837258">
        <ele>17.06</ele>
      </trkpt>
      <trkpt lat="35.4330391343683" lon="134.20938829891384">
        <ele>15.93</ele>
      </trkpt>
      <trkpt lat="35.43473764322698" lon="134.20836076140404">
        <ele>12.61</ele>
      </trkpt>
      <trkpt lat="35.43466388247907" lon="134.20730346813798">
        <ele>14.73</ele>
      </trkpt>
      <trkpt lat="35.43639549985528" lon="134.20666007325053">
        <ele>11.28</ele>
      </trkpt>
      <trkpt lat="35.43569250963628" lon="134.20337537303567">
        <ele>15.0</ele>
      </trkpt>
      <trkpt lat="35.43581932783127" lon="134.20305501669645">
        <ele>15.73</ele>
      </trkpt>
      <trkpt lat="35.43908877298236" lon="134.20333061367273">
        <ele>17.02</ele>
      </trkpt>
      <trkpt lat="35.45190621167421" lon="134.20338291674852">
        <ele>12.39</ele>
      </trkpt>
      <trkpt lat="35.45329232700169" lon="134.20335911214352">
        <ele>11.0</ele>
      </trkpt>
      <trkpt lat="35.45564420521259" lon="134.20300925150514">
        <ele>11.25</ele>
      </trkpt>
      <trkpt lat="35.46039213426411" lon="134.2036645486951">
        <ele>11.53</ele>
      </trkpt>
      <trkpt lat="35.46207161620259" lon="134.20369556173682">
        <ele>9.92</ele>
      </trkpt>
      <trkpt lat="35.46339117921889" lon="134.20342851430178">
        <ele>8.75</ele>
      </trkpt>
      <trkpt lat="35.46441896818578" lon="134.2034478764981">
        <ele>8.0</ele>
      </trkpt>
      <trkpt lat="35.47145448625088" lon="134.20415329746902">
        <ele>13.45</ele>
      </trkpt>
      <trkpt lat="35.474601136520505" lon="134.2047351691872">
        <ele>9.36</ele>
      </trkpt>
      <trkpt lat="35.47480423003435" lon="134.20020449906588">
        <ele>10.58</ele>
      </trkpt>
      <trkpt lat="35.475030206143856" lon="134.19966839253902">
        <ele>18.36</ele>
      </trkpt>
      <trkpt lat="35.47576613724232" lon="134.19932691380382">
        <ele>15.73</ele>
      </trkpt>
      <trkpt lat="35.47592589631677" lon="134.1990042105317">
        <ele>14.93</ele>
      </trkpt>
      <trkpt lat="35.4750485625118" lon="134.196613188833">
        <ele>11.9</ele>
      </trkpt>
      <trkpt lat="35.4749898891896" lon="134.1950793005526">
        <ele>15.78</ele>
      </trkpt>
      <trkpt lat="35.47671823762357" lon="134.19302900321782">
        <ele>16.21</ele>
      </trkpt>
      <trkpt lat="35.477140601724386" lon="134.19223171658814">
        <ele>15.0</ele>
      </trkpt>
      <trkpt lat="35.4775508120656" lon="134.18922663666308">
        <ele>16.75</ele>
      </trkpt>
      <trkpt lat="35.47775164246559" lon="134.18912529945374">
        <ele>16.69</ele>
      </trkpt>
      <trkpt lat="35.47927304171026" lon="134.189250189811">
        <ele>15.4</ele>
      </trkpt>
      <trkpt lat="35.4802309256047" lon="134.18949301354587">
        <ele>11.92</ele>
      </trkpt>
      <trkpt lat="35.480385990813375" lon="134.1892430651933">
        <ele>12.42</ele>
      </trkpt>
      <trkpt lat="35.48077533021569" lon="134.1876660939306">
        <ele>15.16</ele>
      </trkpt>
      <trkpt lat="35.4806852247566" lon="134.18637176044285">
        <ele>17.99</ele>
      </trkpt>
      <trkpt lat="35.480977753177285" lon="134.1852417960763">
        <ele>27.69</ele>
      </trkpt>
      <trkpt lat="35.48080852255225" lon="134.18400957249105">
        <ele>36.0</ele>
      </trkpt>
      <trkpt lat="35.48123122192919" lon="134.18269369751215">
        <ele>50.14</ele>
      </trkpt>
      <trkpt lat="35.480858562514186" lon="134.18130305595696">
        <ele>50.38</ele>
      </trkpt>
      <trkpt lat="35.480925450101495" lon="134.17892561294138">
        <ele>29.48</ele>
      </trkpt>
      <trkpt lat="35.481240106746554" lon="134.17765491642058">
        <ele>21.97</ele>
      </trkpt>
      <trkpt lat="35.482474928721786" lon="134.17515635490417">
        <ele>18.92</ele>
      </trkpt>
      <trkpt lat="35.48228365369141" lon="134.17434951290488">
        <ele>19.0</ele>
      </trkpt>
      <trkpt lat="35.482438718900084" lon="134.17408355511725">
        <ele>19.75</ele>
      </trkpt>
      <trkpt lat="35.48297507688403" lon="134.17432746849954">
        <ele>17.27</ele>
      </trkpt>
      <trkpt lat="35.482976166531444" lon="134.17432797141373">
        <ele>17.27</ele>
      </trkpt>
      <trkpt lat="35.48332091420889" lon="134.17448479682207">
        <ele>17.46</ele>
      </trkpt>
      <trkpt lat="35.48348528333008" lon="134.17479291558266">
        <ele>18.56</ele>
      </trkpt>
      <trkpt lat="35.484077632427216" lon="134.17670415714383">
        <ele>15.38</ele>
      </trkpt>
      <trkpt lat="35.486338986083865" lon="134.18167387135327">
        <ele>10.0</ele>
      </trkpt>
      <trkpt lat="35.48795619048178" lon="134.1847964655608">
        <ele>12.65</ele>
      </trkpt>
      <trkpt lat="35.49047537147999" lon="134.18765586800873">
        <ele>9.43</ele>
      </trkpt>
      <trkpt lat="35.494889952242374" lon="134.19218595139682">
        <ele>8.0</ele>
      </trkpt>
      <trkpt lat="35.496347565203905" lon="134.19400775805116">
        <ele>5.84</ele>
      </trkpt>
      <trkpt lat="35.49752438440919" lon="134.19492188841105">
        <ele>6.91</ele>
      </trkpt>
      <trkpt lat="35.497763603925705" lon="134.1946923919022">
        <ele>5.26</ele>
      </trkpt>
      <trkpt lat="35.4980506002903" lon="134.19185243546963">
        <ele>9.0</ele>
      </trkpt>
      <trkpt lat="35.498488303273916" lon="134.19006298296154">
        <ele>7.02</ele>
      </trkpt>
      <trkpt lat="35.49975045025349" lon="134.18713635765016">
        <ele>25.67</ele>
      </trkpt>
      <trkpt lat="35.50107479095459" lon="134.18468004092574">
        <ele>10.79</ele>
      </trkpt>
      <trkpt lat="35.501379808411" lon="134.18371955864131">
        <ele>12.09</ele>
      </trkpt>
      <trkpt lat="35.50132742151618" lon="134.18230578303337">
        <ele>8.41</ele>
      </trkpt>
      <trkpt lat="35.500968592241406" lon="134.18234224431217">
        <ele>7.98</ele>
      </trkpt>
      <trkpt lat="35.50028563477099" lon="134.1828032489866">
        <ele>11.36</ele>
      </trkpt>
      <trkpt lat="35.49929556436837" lon="134.1829332523048">
        <ele>12.1</ele>
      </trkpt>
    </trkseg>
  </trk>
</gpx>
